HIERARCHY
ROOT PELVIS
{
  OFFSET 0.0000 0.0000 0.0000
  CHANNELS 6 Xposition Yposition Zposition Zrotation Xrotation Yrotation
  JOINT SPINE_1
  {
    OFFSET 0.0000 12.0000 0.0000
    CHANNELS 3 Zrotation Xrotation Yrotation
    JOINT SPINE_2
    {
      OFFSET 0.0000 13.0000 0.0000
      CHANNELS 3 Zrotation Xrotation Yrotation
      JOINT CHEST
      {
        OFFSET 0.0000 11.0000 0.0000
        CHANNELS 3 Zrotation Xrotation Yrotation
        JOINT NECK
        {
          OFFSET 0.0000 20.0000 0.0000
          CHANNELS 3 Zrotation Xrotation Yrotation
          JOINT HEAD
          {
            OFFSET 0.0000 12.0000 0.0000
            CHANNELS 3 Zrotation Xrotation Yrotation
            End Site
            {
              OFFSET 0.0000 6.0000 0.0000
            }
          }
        }
        JOINT L_SHOULDER
        {
          OFFSET -19.0000 15.0000 0.0000
          CHANNELS 3 Zrotation Xrotation Yrotation
          JOINT L_UPPER_ARM
          {
            OFFSET -7.0000 0.0000 0.0000
            CHANNELS 3 Zrotation Xrotation Yrotation
            JOINT L_FOREARM
            {
              OFFSET -28.0000 0.0000 0.0000
              CHANNELS 3 Zrotation Xrotation Yrotation
              JOINT L_HAND
              {
                OFFSET -26.0000 0.0000 0.0000
                CHANNELS 3 Zrotation Xrotation Yrotation
                End Site
                {
                  OFFSET -13.0000 0.0000 0.0000
                }
              }
            }
          }
        }
        JOINT R_SHOULDER
        {
          OFFSET 19.0000 15.0000 0.0000
          CHANNELS 3 Zrotation Xrotation Yrotation
          JOINT R_UPPER_ARM
          {
            OFFSET 7.0000 0.0000 0.0000
            CHANNELS 3 Zrotation Xrotation Yrotation
            JOINT R_FOREARM
            {
              OFFSET 28.0000 0.0000 0.0000
              CHANNELS 3 Zrotation Xrotation Yrotation
              JOINT R_HAND
              {
                OFFSET 26.0000 0.0000 0.0000
                CHANNELS 3 Zrotation Xrotation Yrotation
                End Site
                {
                  OFFSET 13.0000 0.0000 0.0000
                }
              }
            }
          }
        }
      }
    }
  }
  JOINT L_THIGH
  {
    OFFSET -9.0000 -7.0000 0.0000
    CHANNELS 3 Zrotation Xrotation Yrotation
    JOINT L_SHIN
    {
      OFFSET 0.0000 -43.0000 0.0000
      CHANNELS 3 Zrotation Xrotation Yrotation
      JOINT L_FOOT
      {
        OFFSET 0.0000 -40.0000 0.0000
        CHANNELS 3 Zrotation Xrotation Yrotation
        End Site
        {
          OFFSET 0.0000 -20.0000 0.0000
        }
      }
    }
  }
  JOINT R_THIGH
  {
    OFFSET 9.0000 -7.0000 0.0000
    CHANNELS 3 Zrotation Xrotation Yrotation
    JOINT R_SHIN
    {
      OFFSET 0.0000 -43.0000 0.0000
      CHANNELS 3 Zrotation Xrotation Yrotation
      JOINT R_FOOT
      {
        OFFSET 0.0000 -40.0000 0.0000
        CHANNELS 3 Zrotation Xrotation Yrotation
        End Site
        {
          OFFSET 0.0000 -20.0000 0.0000
        }
      }
    }
  }
}

MOTION
Frames: 200
Frame Time: 0.010000
0.0000 90.0000 0.0000 0.0029 -0.0360 0.0024 -0.0003 0.0004 -0.0025 -0.0003 0.0004 -0.0025 -0.0003 0.0005 -0.0026 -0.0000 0.0000 -0.0000 -0.0000 0.0000 -0.0000 -0.0000 0.0000 -0.0000 -0.0000 0.0000 -0.0000 -0.0000 0.0000 -0.0000 -0.0000 0.0000 -0.0000 -0.0000 0.0000 -0.0000 -0.0000 0.0000 -0.0000 -0.0000 0.0000 -0.0000 -0.0000 0.0000 -0.0000 -0.0047 0.0073 -0.0198 0.0035 0.0606 0.0438 -0.0000 0.0000 -0.0000 -0.0039 0.0563 -0.0356 0.0032 0.0187 0.0323 -0.0000 0.0000 -0.0000
0.0000 90.0000 0.0000 -0.0078 -0.0356 -0.0379 0.0079 0.0028 0.0035 0.0079 0.0028 0.0035 0.0081 0.0029 0.0036 -0.0000 0.0000 -0.0000 -0.0000 0.0000 -0.0000 -0.0000 0.0000 -0.0000 -0.0000 0.0000 -0.0000 -0.0000 0.0000 -0.0000 -0.0000 0.0000 -0.0000 -0.0000 0.0000 -0.0000 -0.0000 0.0000 -0.0000 -0.0000 0.0000 -0.0000 -0.0000 0.0000 -0.0000 -0.0091 -0.0314 0.0363 0.0054 0.0563 0.0396 -0.0000 0.0000 -0.0000 -0.0080 0.0866 0.0156 0.0074 0.0007 0.0022 0.0000 -0.0000 -0.0000
0.0000 90.0000 0.0000 -0.0262 -0.0210 -0.0870 0.0203 -0.0089 0.0135 0.0203 -0.0089 0.0135 0.0209 -0.0092 0.0140 0.0000 -0.0000 -0.0000 0.0000 -0.0000 -0.0000 0.0000 -0.0000 -0.0000 0.0000 -0.0000 -0.0000 0.0000 -0.0000 -0.0000 0.0000 -0.0000 -0.0000 0.0000 -0.0000 -0.0000 0.0000 -0.0000 -0.0000 0.0000 -0.0000 -0.0000 0.0000 -0.0000 -0.0000 -0.0089 -0.0667 0.0580 0.0048 0.0436 0.0258 -0.0000 0.0000 -0.0000 -0.0061 0.0970 0.0783 0.0105 -0.0111 -0.0334 0.0000 -0.0000 -0.0000
0.0000 90.0000 0.0000 -0.0403 0.0066 -0.0978 0.0322 -0.0121 0.0215 0.0322 -0.0121 0.0215 0.0332 -0.0124 0.0221 -0.0000 0.0000 -0.0000 -0.0000 0.0000 -0.0000 -0.0000 0.0000 -0.0000 -0.0000 0.0000 -0.0000 -0.0000 0.0000 -0.0000 -0.0000 0.0000 -0.0000 -0.0000 0.0000 -0.0000 -0.0000 0.0000 -0.0000 -0.0000 0.0000 -0.0000 -0.0000 0.0000 -0.0000 -0.0114 -0.1016 0.0614 0.0034 0.0409 0.0237 -0.0000 0.0000 -0.0000 -0.0133 0.1180 0.1020 0.0194 -0.0444 -0.0754 0.0000 -0.0000 -0.0000
0.0000 90.0000 0.0000 -0.0524 -0.0150 -0.1245 0.0417 0.0062 0.0337 0.0417 0.0062 0.0337 0.0429 0.0063 0.0347 -0.0000 0.0000 -0.0000 -0.0000 0.0000 -0.0000 -0.0000 0.0000 -0.0000 -0.0000 0.0000 -0.0000 -0.0000 0.0000 -0.0000 -0.0000 0.0000 -0.0000 -0.0000 0.0000 -0.0000 -0.0000 0.0000 -0.0000 -0.0000 0.0000 -0.0000 -0.0000 0.0000 -0.0000 -0.0167 -0.0803 0.0610 0.0049 -0.0057 0.0579 -0.0000 0.0000 -0.0000 -0.0231 0.1781 0.0853 0.0268 -0.0714 -0.0543 0.0000 -0.0000 -0.0000
0.0000 90.0000 0.0000 -0.0694 -0.0287 -0.1744 0.0536 0.0218 0.0489 0.0536 0.0218 0.0489 0.0553 0.0224 0.0504 0.0000 -0.0000 -0.0000 0.0000 -0.0000 -0.0000 0.0000 -0.0000 -0.0000 0.0000 -0.0000 -0.0000 0.0000 -0.0000 -0.0000 0.0000 -0.0000 -0.0000 0.0000 -0.0000 -0.0000 0.0000 -0.0000 -0.0000 0.0000 -0.0000 -0.0000 0.0000 -0.0000 -0.0000 -0.0159 -0.0697 0.0922 -0.0010 -0.0653 0.0401 0.0000 -0.0000 -0.0000 -0.0258 0.2349 0.0833 0.0345 -0.1008 -0.0252 -0.0000 0.0000 -0.0000
0.0000 90.0000 0.0000 -0.0924 -0.0546 -0.1750 0.0682 0.0248 0.0530 0.0682 0.0248 0.0530 0.0703 0.0255 0.0546 -0.0000 0.0000 -0.0000 -0.0000 0.0000 -0.0000 -0.0000 0.0000 -0.0000 -0.0000 0.0000 -0.0000 -0.0000 0.0000 -0.0000 -0.0000 0.0000 -0.0000 -0.0000 0.0000 -0.0000 -0.0000 0.0000 -0.0000 -0.0000 0.0000 -0.0000 -0.0000 0.0000 -0.0000 -0.0096 -0.0705 0.0486 -0.0048 -0.0915 0.0316 -0.0000 0.0000 -0.0000 -0.0234 0.3247 0.0672 0.0396 -0.1529 -0.0335 0.0000 -0.0000 -0.0000
0.0000 90.0000 0.0000 -0.1143 -0.0389 -0.2064 0.0815 0.0083 0.0658 0.0815 0.0083 0.0658 0.0840 0.0086 0.0678 -0.0000 0.0000 -0.0000 -0.0000 0.0000 -0.0000 -0.0000 0.0000 -0.0000 -0.0000 0.0000 -0.0000 -0.0000 0.0000 -0.0000 -0.0000 0.0000 -0.0000 -0.0000 0.0000 -0.0000 -0.0000 0.0000 -0.0000 -0.0000 0.0000 -0.0000 -0.0000 0.0000 -0.0000 -0.0028 -0.1230 0.0269 -0.0048 -0.0983 0.0874 0.0000 -0.0000 -0.0000 -0.0227 0.3770 0.0888 0.0453 -0.2137 -0.0493 0.0000 -0.0000 -0.0000
0.0000 90.0000 0.0000 -0.1371 -0.0590 -0.2428 0.0954 0.0122 0.0706 0.0954 0.0122 0.0706 0.0983 0.0125 0.0727 -0.0000 0.0000 -0.0000 -0.0000 0.0000 -0.0000 -0.0000 0.0000 -0.0000 -0.0000 0.0000 -0.0000 -0.0000 0.0000 -0.0000 -0.0000 0.0000 -0.0000 -0.0000 0.0000 -0.0000 -0.0000 0.0000 -0.0000 -0.0000 0.0000 -0.0000 -0.0000 0.0000 -0.0000 0.0023 -0.1670 0.0410 -0.0033 -0.1004 0.0934 0.0000 -0.0000 -0.0000 -0.0158 0.4114 0.0999 0.0436 -0.2177 -0.0548 -0.0000 0.0000 -0.0000
0.0000 90.0000 0.0000 -0.1573 -0.0958 -0.2586 0.1085 0.0162 0.0809 0.1085 0.0162 0.0809 0.1118 0.0167 0.0834 0.0000 -0.0000 -0.0000 0.0000 -0.0000 -0.0000 0.0000 -0.0000 -0.0000 0.0000 -0.0000 -0.0000 0.0000 -0.0000 -0.0000 0.0000 -0.0000 -0.0000 0.0000 -0.0000 -0.0000 0.0000 -0.0000 -0.0000 0.0000 -0.0000 -0.0000 0.0000 -0.0000 -0.0000 0.0036 -0.1845 0.0145 -0.0002 -0.1126 0.1332 -0.0000 0.0000 -0.0000 -0.0096 0.4539 0.1102 0.0409 -0.2190 -0.0747 0.0000 -0.0000 -0.0000
0.0000 90.0000 0.0000 -0.1774 -0.0923 -0.2538 0.1201 0.0220 0.0843 0.1201 0.0220 0.0843 0.1237 0.0226 0.0869 -0.0000 0.0000 -0.0000 -0.0000 0.0000 -0.0000 -0.0000 0.0000 -0.0000 -0.0000 0.0000 -0.0000 -0.0000 0.0000 -0.0000 -0.0000 0.0000 -0.0000 -0.0000 0.0000 -0.0000 -0.0000 0.0000 -0.0000 -0.0000 0.0000 -0.0000 -0.0000 0.0000 -0.0000 0.0065 -0.2016 -0.0062 0.0005 -0.1653 0.1545 0.0000 -0.0000 -0.0000 -0.0020 0.4525 0.0951 0.0382 -0.2146 -0.0846 -0.0000 0.0000 -0.0000
0.0000 89.9999 0.0000 -0.1946 -0.1182 -0.2599 0.1335 0.0383 0.0817 0.1335 0.0383 0.0817 0.1376 0.0395 0.0842 -0.0000 0.0000 -0.0000 -0.0000 0.0000 -0.0000 -0.0000 0.0000 -0.0000 -0.0000 0.0000 -0.0000 -0.0000 0.0000 -0.0000 -0.0000 0.0000 -0.0000 -0.0000 0.0000 -0.0000 -0.0000 0.0000 -0.0000 -0.0000 0.0000 -0.0000 -0.0000 0.0000 -0.0000 0.0036 -0.2219 0.0045 0.0028 -0.1625 0.1130 0.0000 -0.0000 -0.0000 -0.0008 0.5305 0.0849 0.0382 -0.2609 -0.0948 0.0000 -0.0000 -0.0000
0.0000 89.9999 0.0000 -0.2099 -0.0950 -0.2753 0.1441 0.0260 0.0948 0.1441 0.0260 0.0948 0.1484 0.0268 0.0976 0.0000 -0.0000 -0.0000 0.0000 -0.0000 -0.0000 0.0000 -0.0000 -0.0000 0.0000 -0.0000 -0.0000 0.0000 -0.0000 -0.0000 0.0000 -0.0000 -0.0000 0.0000 -0.0000 -0.0000 0.0000 -0.0000 -0.0000 0.0000 -0.0000 -0.0000 0.0000 -0.0000 -0.0000 0.0025 -0.3122 0.0186 -0.0041 -0.1545 0.0661 -0.0000 0.0000 -0.0000 -0.0010 0.5181 0.0856 0.0393 -0.2685 -0.0949 0.0000 -0.0000 -0.0000
0.0000 89.9999 0.0000 -0.2266 -0.0680 -0.2786 0.1543 0.0220 0.0930 0.1543 0.0220 0.0930 0.1590 0.0227 0.0959 -0.0000 0.0000 -0.0000 -0.0000 0.0000 -0.0000 -0.0000 0.0000 -0.0000 -0.0000 0.0000 -0.0000 -0.0000 0.0000 -0.0000 -0.0000 0.0000 -0.0000 -0.0000 0.0000 -0.0000 -0.0000 0.0000 -0.0000 -0.0000 0.0000 -0.0000 -0.0000 0.0000 -0.0000 0.0010 -0.3862 -0.0215 -0.0037 -0.1399 0.1144 -0.0000 0.0000 -0.0000 -0.0013 0.5099 0.0985 0.0448 -0.2868 -0.1227 -0.0000 0.0000 -0.0000
0.0000 89.9999 0.0000 -0.2472 -0.0565 -0.2680 0.1672 0.0140 0.0818 0.1672 0.0140 0.0818 0.1723 0.0144 0.0843 0.0000 -0.0000 -0.0000 0.0000 -0.0000 -0.0000 0.0000 -0.0000 -0.0000 0.0000 -0.0000 -0.0000 0.0000 -0.0000 -0.0000 0.0000 -0.0000 -0.0000 0.0000 -0.0000 -0.0000 0.0000 -0.0000 -0.0000 0.0000 -0.0000 -0.0000 0.0000 -0.0000 -0.0000 0.0057 -0.4086 -0.0612 -0.0049 -0.1911 0.1394 -0.0000 0.0000 -0.0000 0.0046 0.5580 0.0742 0.0464 -0.3450 -0.1303 0.0000 -0.0000 -0.0000
0.0000 89.9999 0.0000 -0.2645 -0.0806 -0.2657 0.1795 0.0282 0.0771 0.1795 0.0282 0.0771 0.1849 0.0290 0.0794 -0.0000 0.0000 -0.0000 -0.0000 0.0000 -0.0000 -0.0000 0.0000 -0.0000 -0.0000 0.0000 -0.0000 -0.0000 0.0000 -0.0000 -0.0000 0.0000 -0.0000 -0.0000 0.0000 -0.0000 -0.0000 0.0000 -0.0000 -0.0000 0.0000 -0.0000 -0.0000 0.0000 -0.0000 0.0070 -0.3884 -0.0687 -0.0052 -0.2150 0.1515 0.0000 -0.0000 -0.0000 -0.0006 0.6437 0.0346 0.0548 -0.4048 -0.1148 0.0000 -0.0000 -0.0000
0.0000 89.9998 0.0000 -0.2807 -0.1113 -0.2576 0.1911 0.0338 0.0674 0.1911 0.0338 0.0674 0.1968 0.0348 0.0694 -0.0000 0.0000 -0.0000 -0.0000 0.0000 -0.0000 -0.0000 0.0000 -0.0000 -0.0000 0.0000 -0.0000 -0.0000 0.0000 -0.0000 -0.0000 0.0000 -0.0000 -0.0000 0.0000 -0.0000 -0.0000 0.0000 -0.0000 -0.0000 0.0000 -0.0000 -0.0000 0.0000 -0.0000 0.0026 -0.3722 -0.0680 -0.0005 -0.2552 0.1144 0.0000 -0.0000 -0.0000 -0.0037 0.7227 -0.0256 0.0554 -0.4509 -0.0842 -0.0000 0.0000 -0.0000
0.0000 89.9998 0.0000 -0.3004 -0.1103 -0.2419 0.2036 0.0297 0.0533 0.2036 0.0297 0.0533 0.2098 0.0306 0.0549 -0.0000 0.0000 -0.0000 -0.0000 0.0000 -0.0000 -0.0000 0.0000 -0.0000 -0.0000 0.0000 -0.0000 -0.0000 0.0000 -0.0000 -0.0000 0.0000 -0.0000 -0.0000 0.0000 -0.0000 -0.0000 0.0000 -0.0000 -0.0000 0.0000 -0.0000 -0.0000 0.0000 -0.0000 0.0029 -0.4293 -0.1130 -0.0004 -0.2655 0.1110 0.0000 -0.0000 -0.0000 -0.0037 0.7490 -0.0965 0.0576 -0.4801 -0.0511 -0.0000 0.0000 -0.0000
0.0000 89.9997 0.0000 -0.3133 -0.0934 -0.2718 0.2129 0.0212 0.0705 0.2129 0.0212 0.0705 0.2194 0.0219 0.0727 0.0000 -0.0000 -0.0000 0.0000 -0.0000 -0.0000 0.0000 -0.0000 -0.0000 0.0000 -0.0000 -0.0000 0.0000 -0.0000 -0.0000 0.0000 -0.0000 -0.0000 0.0000 -0.0000 -0.0000 0.0000 -0.0000 -0.0000 0.0000 -0.0000 -0.0000 0.0000 -0.0000 -0.0000 -0.0007 -0.4673 -0.1174 -0.0007 -0.3090 0.1376 -0.0000 0.0000 -0.0000 -0.0089 0.7843 -0.1189 0.0574 -0.5374 -0.0118 -0.0000 0.0000 -0.0000
0.0000 89.9997 0.0000 -0.3348 -0.1178 -0.3027 0.2255 0.0204 0.0765 0.2255 0.0204 0.0765 0.2323 0.0210 0.0788 -0.0000 0.0000 -0.0000 -0.0000 0.0000 -0.0000 -0.0000 0.0000 -0.0000 -0.0000 0.0000 -0.0000 -0.0000 0.0000 -0.0000 -0.0000 0.0000 -0.0000 -0.0000 0.0000 -0.0000 -0.0000 0.0000 -0.0000 -0.0000 0.0000 -0.0000 -0.0000 0.0000 -0.0000 0.0002 -0.4955 -0.0887 -0.0064 -0.3260 0.1203 -0.0000 0.0000 -0.0000 -0.0036 0.8465 -0.1401 0.0564 -0.5839 0.0304 -0.0000 0.0000 -0.0000
0.0002 89.9719 0.0353 -2.2035 0.4428 -1.8504 1.2203 -0.9080 0.7153 1.2203 -0.9080 0.7153 1.2571 -0.9358 0.7366 -0.0000 0.0000 -0.0000 -0.0000 0.0000 -0.0000 -0.0000 0.0000 -0.0000 -0.0000 0.0000 -0.0000 -0.0000 0.0000 -0.0000 -0.0000 0.0000 -0.0000 -0.0000 0.0000 -0.0000 -0.0000 0.0000 -0.0000 -0.0000 0.0000 -0.0000 -0.0000 0.0000 -0.0000 0.0173 -10.4241 -0.0222 0.0131 -0.3296 0.0956 0.0000 -0.0000 -0.0000 0.0115 10.9721 -0.1015 0.2639 6.1152 0.0245 -0.0000 0.0000 -0.0000
0.0010 89.9486 0.1159 -3.0978 0.5319 -2.5887 1.7101 -1.1253 1.0041 1.7101 -1.1253 1.0041 1.7616 -1.1599 1.0340 -0.0000 0.0000 -0.0000 -0.0000 0.0000 -0.0000 -0.0000 0.0000 -0.0000 -0.0000 0.0000 -0.0000 -0.0000 0.0000 -0.0000 -0.0000 0.0000 -0.0000 -0.0000 0.0000 -0.0000 -0.0000 0.0000 -0.0000 -0.0000 0.0000 -0.0000 -0.0000 0.0000 -0.0000 0.0710 -15.0280 -0.0963 0.0317 -0.3048 0.1335 -0.0000 0.0000 -0.0000 -0.0076 15.7666 -0.0450 0.8112 6.0670 0.0184 -0.0000 -0.0000 0.0000
0.0028 89.9413 0.2457 -3.7202 0.5018 -3.1453 2.0551 -1.1512 1.2258 2.0551 -1.1512 1.2258 2.1170 -1.1868 1.2623 0.0000 -0.0000 -0.0000 0.0000 -0.0000 -0.0000 0.0000 -0.0000 -0.0000 0.0000 -0.0000 -0.0000 0.0000 -0.0000 -0.0000 0.0000 -0.0000 -0.0000 0.0000 -0.0000 -0.0000 0.0000 -0.0000 -0.0000 0.0000 -0.0000 -0.0000 0.0000 -0.0000 -0.0000 0.1154 -18.1054 -0.0837 0.0422 -0.3486 0.1584 -0.0000 0.0000 -0.0000 0.0033 19.0403 0.0049 1.4676 5.5700 -0.0880 -0.0000 0.0000 -0.0000
0.0058 89.9448 0.4257 -4.2355 0.4218 -3.6100 2.3428 -1.1318 1.4160 2.3428 -1.1318 1.4160 2.4134 -1.1670 1.4582 0.0000 -0.0000 -0.0000 0.0000 -0.0000 -0.0000 0.0000 -0.0000 -0.0000 0.0000 -0.0000 -0.0000 0.0000 -0.0000 -0.0000 0.0000 -0.0000 -0.0000 0.0000 -0.0000 -0.0000 0.0000 -0.0000 -0.0000 0.0000 -0.0000 -0.0000 0.0000 -0.0000 -0.0000 0.1511 -20.0656 -0.0619 0.0540 -0.3118 0.1728 0.0000 -0.0000 -0.0000 0.0213 21.7596 0.0378 2.1524 4.5197 -0.3486 -0.0000 0.0000 -0.0000
0.0106 89.9498 0.6558 -4.6811 0.3742 -3.9766 2.5934 -1.1245 1.5646 2.5934 -1.1245 1.5646 2.6715 -1.1596 1.6113 -0.0000 0.0000 -0.0000 -0.0000 0.0000 -0.0000 -0.0000 0.0000 -0.0000 -0.0000 0.0000 -0.0000 -0.0000 0.0000 -0.0000 -0.0000 0.0000 -0.0000 -0.0000 0.0000 -0.0000 -0.0000 0.0000 -0.0000 -0.0000 0.0000 -0.0000 -0.0000 0.0000 -0.0000 0.1891 -20.2905 -0.0712 0.0574 -0.2570 0.1640 0.0000 -0.0000 -0.0000 0.0473 24.0682 0.0472 2.8732 -1.9914 -0.8030 -0.0000 0.0000 -0.0000
0.0176 89.9475 0.9350 -5.0606 0.3309 -4.2741 2.8064 -1.1020 1.6896 2.8064 -1.1020 1.6896 2.8910 -1.1367 1.7399 0.0000 -0.0000 -0.0000 0.0000 -0.0000 -0.0000 0.0000 -0.0000 -0.0000 0.0000 -0.0000 -0.0000 0.0000 -0.0000 -0.0000 0.0000 -0.0000 -0.0000 0.0000 -0.0000 -0.0000 0.0000 -0.0000 -0.0000 0.0000 -0.0000 -0.0000 0.0000 -0.0000 -0.0000 0.2232 -20.4805 -0.0789 -0.1310 4.7627 0.6432 -0.0000 0.0000 -0.0000 0.0756 26.0445 0.0548 3.1132 -3.5915 -0.8811 -0.0000 0.0000 -0.0000
0.0271 89.9293 1.2610 -5.3784 0.3136 -4.5400 2.9850 -1.0986 1.7937 2.9850 -1.0986 1.7937 3.0750 -1.1333 1.8472 -0.0000 0.0000 -0.0000 -0.0000 0.0000 -0.0000 -0.0000 0.0000 -0.0000 -0.0000 0.0000 -0.0000 -0.0000 0.0000 -0.0000 -0.0000 0.0000 -0.0000 -0.0000 0.0000 -0.0000 -0.0000 0.0000 -0.0000 -0.0000 0.0000 -0.0000 -0.0000 0.0000 -0.0000 0.2636 -20.6413 -0.0656 -0.3637 5.5997 1.2111 0.0000 -0.0000 -0.0000 0.1077 27.6754 0.0960 3.2063 -3.9825 -0.8558 -0.0000 0.0000 -0.0000
0.0396 89.8885 1.6309 -5.6265 0.2781 -4.7813 3.1251 -1.0920 1.8904 3.1251 -1.0920 1.8904 3.2192 -1.1266 1.9468 0.0000 -0.0000 -0.0000 0.0000 -0.0000 -0.0000 0.0000 -0.0000 -0.0000 0.0000 -0.0000 -0.0000 0.0000 -0.0000 -0.0000 0.0000 -0.0000 -0.0000 0.0000 -0.0000 -0.0000 0.0000 -0.0000 -0.0000 0.0000 -0.0000 -0.0000 0.0000 -0.0000 -0.0000 0.2996 -20.7654 -0.0469 -0.5772 6.2380 1.8302 0.0000 -0.0000 -0.0000 0.1377 28.9706 0.1616 3.2455 -4.0757 -0.8070 -0.0000 -0.0000 0.0000
0.0551 89.8200 2.0412 -5.8016 0.2732 -4.9604 3.2231 -1.0800 1.9572 3.2231 -1.0800 1.9572 3.3202 -1.1144 2.0156 -0.0000 0.0000 -0.0000 -0.0000 0.0000 -0.0000 -0.0000 0.0000 -0.0000 -0.0000 0.0000 -0.0000 -0.0000 0.0000 -0.0000 -0.0000 0.0000 -0.0000 -0.0000 0.0000 -0.0000 -0.0000 0.0000 -0.0000 -0.0000 0.0000 -0.0000 -0.0000 0.0000 -0.0000 0.3274 -20.8570 -0.0336 -0.7852 6.8619 2.4340 0.0000 -0.0000 -0.0000 0.1598 29.8745 0.2182 3.2665 -4.0995 -0.7646 -0.0000 0.0000 -0.0000
0.0738 89.7210 2.4873 -5.9069 0.2906 -5.0538 3.2805 -1.0819 1.9828 3.2805 -1.0819 1.9828 3.3793 -1.1164 2.0419 0.0000 -0.0000 -0.0000 0.0000 -0.0000 -0.0000 0.0000 -0.0000 -0.0000 0.0000 -0.0000 -0.0000 0.0000 -0.0000 -0.0000 0.0000 -0.0000 -0.0000 0.0000 -0.0000 -0.0000 0.0000 -0.0000 -0.0000 0.0000 -0.0000 -0.0000 0.0000 -0.0000 -0.0000 0.3480 -20.9123 -0.0317 -1.0073 7.4558 2.9982 0.0000 -0.0000 -0.0000 0.1771 30.3923 0.2484 3.2866 -4.1116 -0.7519 -0.0000 0.0000 -0.0000
0.0958 89.5905 2.9645 -5.9342 0.2745 -5.0594 3.2932 -1.0806 1.9752 3.2932 -1.0806 1.9752 3.3924 -1.1151 2.0341 0.0000 -0.0000 -0.0000 0.0000 -0.0000 -0.0000 0.0000 -0.0000 -0.0000 0.0000 -0.0000 -0.0000 0.0000 -0.0000 -0.0000 0.0000 -0.0000 -0.0000 0.0000 -0.0000 -0.0000 0.0000 -0.0000 -0.0000 0.0000 -0.0000 -0.0000 0.0000 -0.0000 -0.0000 0.3510 -20.9258 -0.0390 -1.2746 8.0122 3.5013 -0.0000 0.0000 -0.0000 0.1758 30.5566 0.2393 3.3002 -4.1269 -0.7592 -0.0000 0.0000 -0.0000
0.1209 89.4296 3.4672 -5.8905 0.3009 -5.0232 3.2684 -1.1001 1.9621 3.2684 -1.1001 1.9621 3.3669 -1.1351 2.0206 0.0000 -0.0000 -0.0000 0.0000 -0.0000 -0.0000 0.0000 -0.0000 -0.0000 0.0000 -0.0000 -0.0000 0.0000 -0.0000 -0.0000 0.0000 -0.0000 -0.0000 0.0000 -0.0000 -0.0000 0.0000 -0.0000 -0.0000 0.0000 -0.0000 -0.0000 0.0000 -0.0000 -0.0000 0.3459 -20.9049 -0.0251 -1.6175 8.5229 3.9090 0.0000 -0.0000 -0.0000 0.1754 30.3023 0.2429 3.2958 -4.1493 -0.7825 -0.0000 0.0000 -0.0000
0.1488 89.2414 3.9897 -5.7721 0.3292 -4.9420 3.2028 -1.1031 1.9299 3.2028 -1.1031 1.9299 3.2993 -1.1382 1.9874 -0.0000 0.0000 -0.0000 -0.0000 0.0000 -0.0000 -0.0000 0.0000 -0.0000 -0.0000 0.0000 -0.0000 -0.0000 0.0000 -0.0000 -0.0000 0.0000 -0.0000 -0.0000 0.0000 -0.0000 -0.0000 0.0000 -0.0000 -0.0000 0.0000 -0.0000 -0.0000 0.0000 -0.0000 0.3314 -20.8460 -0.0008 -2.0480 8.9835 4.2384 -0.0000 0.0000 -0.0000 0.1648 29.6612 0.2448 3.2846 -4.1826 -0.8158 -0.0000 0.0000 -0.0000
0.1792 89.0309 4.5257 -5.5816 0.3705 -4.8049 3.0944 -1.1255 1.8755 3.0944 -1.1255 1.8755 3.1876 -1.1612 1.9314 -0.0000 0.0000 -0.0000 -0.0000 0.0000 -0.0000 -0.0000 0.0000 -0.0000 -0.0000 0.0000 -0.0000 -0.0000 0.0000 -0.0000 -0.0000 0.0000 -0.0000 -0.0000 0.0000 -0.0000 -0.0000 0.0000 -0.0000 -0.0000 0.0000 -0.0000 -0.0000 0.0000 -0.0000 0.3138 -20.7510 0.0304 -2.6440 9.3863 4.3970 -0.0000 0.0000 -0.0000 0.1490 28.6233 0.2443 3.2725 -4.2043 -0.8858 -0.0000 0.0000 -0.0000
0.2115 88.8043 5.0688 -5.3193 0.4362 -4.6052 2.9468 -1.1436 1.7969 2.9468 -1.1436 1.7969 3.0356 -1.1796 1.8504 -0.0000 0.0000 -0.0000 -0.0000 0.0000 -0.0000 -0.0000 0.0000 -0.0000 -0.0000 0.0000 -0.0000 -0.0000 0.0000 -0.0000 -0.0000 0.0000 -0.0000 -0.0000 0.0000 -0.0000 -0.0000 0.0000 -0.0000 -0.0000 0.0000 -0.0000 -0.0000 0.0000 -0.0000 0.2839 -20.6212 0.0693 -3.4309 9.7281 4.3495 0.0000 -0.0000 0.0000 0.1230 27.1950 0.2401 3.2580 -4.2230 -0.9822 -0.0000 0.0000 -0.0000
0.2452 88.5682 5.6124 -4.9894 0.5227 -4.3281 2.7620 -1.1833 1.6915 2.7620 -1.1833 1.6915 2.8452 -1.2204 1.7418 0.0000 -0.0000 -0.0000 0.0000 -0.0000 -0.0000 0.0000 -0.0000 -0.0000 0.0000 -0.0000 -0.0000 0.0000 -0.0000 -0.0000 0.0000 -0.0000 -0.0000 0.0000 -0.0000 -0.0000 0.0000 -0.0000 -0.0000 0.0000 -0.0000 -0.0000 0.0000 -0.0000 -0.0000 0.2556 -20.4617 0.0761 -4.4382 10.0064 4.0854 0.0000 -0.0000 -0.0000 0.0939 25.4276 0.2228 3.2383 -4.2676 -1.1109 -0.0000 0.0000 -0.0000
0.2796 88.3316 6.1498 -4.5953 0.6149 -3.9940 2.5417 -1.2302 1.5636 2.5417 -1.2302 1.5636 2.6182 -1.2685 1.6102 0.0000 -0.0000 -0.0000 0.0000 -0.0000 -0.0000 0.0000 -0.0000 -0.0000 0.0000 -0.0000 -0.0000 0.0000 -0.0000 -0.0000 0.0000 -0.0000 -0.0000 0.0000 -0.0000 -0.0000 0.0000 -0.0000 -0.0000 0.0000 -0.0000 -0.0000 0.0000 -0.0000 -0.0000 0.2222 -20.2683 0.0577 -5.0711 10.2131 3.5183 -0.0000 -0.0000 -0.0000 0.0678 23.3227 0.1553 3.1603 -4.2801 -1.1724 -0.0000 0.0000 -0.0000
0.3140 88.1025 6.6745 -4.1420 0.6776 -3.5685 2.2884 -1.2522 1.3951 2.2884 -1.2522 1.3951 2.3573 -1.2910 1.4366 -0.0000 0.0000 -0.0000 -0.0000 0.0000 -0.0000 -0.0000 0.0000 -0.0000 -0.0000 0.0000 -0.0000 -0.0000 0.0000 -0.0000 -0.0000 0.0000 -0.0000 -0.0000 0.0000 -0.0000 -0.0000 0.0000 -0.0000 -0.0000 0.0000 -0.0000 -0.0000 0.0000 -0.0000 0.1903 -20.0437 0.0417 -5.2230 10.3476 2.6654 -0.0000 0.0000 0.0000 0.0369 20.9279 0.0815 3.0797 -4.3042 -1.2551 -0.0000 0.0000 -0.0000
0.3476 87.8891 7.1800 -3.6335 0.7141 -3.1390 2.0050 -1.2607 1.2250 2.0050 -1.2607 1.2250 2.0653 -1.2996 1.2615 -0.0000 0.0000 -0.0000 -0.0000 0.0000 -0.0000 -0.0000 0.0000 -0.0000 -0.0000 0.0000 -0.0000 -0.0000 0.0000 -0.0000 -0.0000 0.0000 -0.0000 -0.0000 0.0000 -0.0000 -0.0000 0.0000 -0.0000 -0.0000 0.0000 -0.0000 -0.0000 0.0000 -0.0000 0.1547 -17.8870 0.0753 -5.3934 10.4058 1.5448 0.0000 -0.0000 0.0000 0.0052 18.3264 0.0285 2.9747 -4.3507 -1.3126 -0.0000 0.0000 -0.0000
0.3799 87.6998 7.6598 -3.0751 0.7356 -2.6683 1.6944 -1.2763 1.0464 1.6944 -1.2763 1.0464 1.7454 -1.3155 1.0775 -0.0000 0.0000 -0.0000 -0.0000 0.0000 -0.0000 -0.0000 0.0000 -0.0000 -0.0000 0.0000 -0.0000 -0.0000 0.0000 -0.0000 -0.0000 0.0000 -0.0000 -0.0000 0.0000 -0.0000 -0.0000 0.0000 -0.0000 -0.0000 0.0000 -0.0000 -0.0000 0.0000 -0.0000 0.1201 -15.0734 0.0754 -5.5666 10.3855 0.3623 0.0000 -0.0000 0.0000 -0.0206 15.4918 -0.0290 2.8519 -4.3546 -1.3721 -0.0000 0.0000 -0.0000
0.4101 87.5415 8.1079 -2.4798 0.7685 -2.1275 1.3619 -1.2852 0.8418 1.3619 -1.2852 0.8418 1.4029 -1.3245 0.8668 -0.0000 0.0000 -0.0000 -0.0000 0.0000 -0.0000 -0.0000 0.0000 -0.0000 -0.0000 0.0000 -0.0000 -0.0000 0.0000 -0.0000 -0.0000 0.0000 -0.0000 -0.0000 0.0000 -0.0000 -0.0000 0.0000 -0.0000 -0.0000 0.0000 -0.0000 -0.0000 0.0000 -0.0000 0.0968 -12.0688 0.0358 -5.7317 10.2886 -0.7858 0.0000 -0.0000 -0.0000 -0.0384 12.4458 -0.0636 2.7359 -4.3563 -1.4761 0.0000 -0.0000 -0.0000
0.4378 87.4192 8.5186 -1.8529 0.7759 -1.5707 1.0116 -1.2812 0.6214 1.0116 -1.2812 0.6214 1.0421 -1.3202 0.6399 -0.0000 0.0000 -0.0000 -0.0000 0.0000 -0.0000 -0.0000 0.0000 -0.0000 -0.0000 0.0000 -0.0000 -0.0000 0.0000 -0.0000 -0.0000 0.0000 -0.0000 -0.0000 0.0000 -0.0000 -0.0000 0.0000 -0.0000 -0.0000 0.0000 -0.0000 -0.0000 0.0000 -0.0000 0.0814 -8.8940 0.0328 -5.8767 10.1185 -1.7904 0.0000 -0.0000 0.0000 -0.0506 9.2509 -0.0884 2.6054 -4.3865 -1.5667 -0.0000 0.0000 -0.0000
0.4624 87.3371 8.8867 -1.2017 0.7985 -1.0287 0.6482 -1.2804 0.4108 0.6482 -1.2804 0.4108 0.6677 -1.3193 0.4230 0.0000 -0.0000 -0.0000 0.0000 -0.0000 -0.0000 0.0000 -0.0000 -0.0000 0.0000 -0.0000 -0.0000 0.0000 -0.0000 -0.0000 0.0000 -0.0000 -0.0000 0.0000 -0.0000 -0.0000 0.0000 -0.0000 -0.0000 0.0000 -0.0000 -0.0000 0.0000 -0.0000 -0.0000 0.0753 -5.6160 0.0592 -5.9942 9.8773 -2.5296 0.0000 -0.0000 -0.0000 -0.0574 5.9200 -0.0760 2.4636 -4.3843 -1.6361 -0.0000 0.0000 -0.0000
0.4844 87.2977 9.2177 -0.5348 0.8030 -0.4817 0.2774 -1.2736 0.2026 0.2774 -1.2736 0.2026 0.2858 -1.3122 0.2087 0.0000 -0.0000 -0.0000 0.0000 -0.0000 -0.0000 0.0000 -0.0000 -0.0000 0.0000 -0.0000 -0.0000 0.0000 -0.0000 -0.0000 0.0000 -0.0000 -0.0000 0.0000 -0.0000 -0.0000 0.0000 -0.0000 -0.0000 0.0000 -0.0000 -0.0000 0.0000 -0.0000 -0.0000 0.0689 -2.2384 0.0878 -6.0825 9.5691 -2.9644 0.0000 -0.0000 -0.0000 -0.0645 2.5316 -0.0576 2.3212 -4.3716 -1.6816 -0.0000 0.0000 -0.0000
0.5040 87.3013 9.5161 0.1403 0.7977 0.1211 -0.0985 -1.2795 -0.0279 -0.0985 -1.2795 -0.0279 -0.1015 -1.3183 -0.0287 0.0000 -0.0000 -0.0000 0.0000 -0.0000 -0.0000 0.0000 -0.0000 -0.0000 0.0000 -0.0000 -0.0000 0.0000 -0.0000 -0.0000 0.0000 -0.0000 -0.0000 0.0000 -0.0000 -0.0000 0.0000 -0.0000 -0.0000 0.0000 -0.0000 -0.0000 0.0000 -0.0000 -0.0000 0.0614 1.1844 0.0606 -6.1445 9.1994 -3.0865 -0.0000 0.0000 -0.0000 -0.0732 -0.8811 -0.0763 2.1791 -4.3530 -1.7272 0.0000 -0.0000 -0.0000
0.5213 87.3463 9.7861 0.8107 0.7884 0.7343 -0.4716 -1.2726 -0.2582 -0.4716 -1.2726 -0.2582 -0.4858 -1.3112 -0.2659 0.0000 -0.0000 -0.0000 0.0000 -0.0000 -0.0000 0.0000 -0.0000 -0.0000 0.0000 -0.0000 -0.0000 0.0000 -0.0000 -0.0000 0.0000 -0.0000 -0.0000 0.0000 -0.0000 -0.0000 0.0000 -0.0000 -0.0000 0.0000 -0.0000 -0.0000 0.0000 -0.0000 -0.0000 0.0590 4.6026 0.0161 -6.1869 8.7743 -2.9355 0.0000 -0.0000 -0.0000 -0.0801 -4.2838 -0.1037 2.0434 -4.3437 -1.7574 -0.0000 0.0000 -0.0000
0.5370 87.4296 10.0412 1.4717 0.7649 1.3454 -0.8406 -1.2600 -0.5030 -0.8406 -1.2600 -0.5030 -0.8659 -1.2983 -0.5180 -0.0000 0.0000 -0.0000 -0.0000 0.0000 -0.0000 -0.0000 0.0000 -0.0000 -0.0000 0.0000 -0.0000 -0.0000 0.0000 -0.0000 -0.0000 0.0000 -0.0000 -0.0000 0.0000 -0.0000 -0.0000 0.0000 -0.0000 -0.0000 0.0000 -0.0000 -0.0000 0.0000 -0.0000 0.0545 7.9843 -0.0346 -6.2154 8.2990 -2.5346 0.0000 -0.0000 -0.0000 -0.0928 -7.6157 -0.1410 1.9147 -4.3362 -1.7747 0.0000 -0.0000 -0.0000
0.5515 87.5464 10.2945 2.1122 0.7406 1.9375 -1.1993 -1.2393 -0.7407 -1.1993 -1.2393 -0.7407 -1.2354 -1.2771 -0.7628 -0.0000 0.0000 -0.0000 -0.0000 0.0000 -0.0000 -0.0000 0.0000 -0.0000 -0.0000 0.0000 -0.0000 -0.0000 0.0000 -0.0000 -0.0000 0.0000 -0.0000 -0.0000 0.0000 -0.0000 -0.0000 0.0000 -0.0000 -0.0000 0.0000 -0.0000 -0.0000 0.0000 -0.0000 0.0483 11.2663 -0.0923 -6.2369 7.7805 -1.9030 0.0000 -0.0000 -0.0000 -0.1087 -10.8505 -0.1646 1.7876 -4.3124 -1.7999 -0.0000 0.0000 0.0000
0.5647 87.6907 10.5566 2.7271 0.7268 2.4873 -1.5428 -1.2282 -0.9668 -1.5428 -1.2282 -0.9668 -1.5892 -1.2658 -0.9956 -0.0000 0.0000 -0.0000 -0.0000 0.0000 -0.0000 -0.0000 0.0000 -0.0000 -0.0000 0.0000 -0.0000 -0.0000 0.0000 -0.0000 -0.0000 0.0000 -0.0000 -0.0000 0.0000 -0.0000 -0.0000 0.0000 -0.0000 -0.0000 0.0000 -0.0000 -0.0000 0.0000 -0.0000 0.0348 14.4058 -0.1341 -6.2566 7.2255 -1.0617 0.0000 -0.0000 -0.0000 -0.1333 -13.9614 -0.1771 1.6665 -4.2876 -1.8102 0.0000 -0.0000 -0.0000
0.5768 87.8550 10.8357 3.3075 0.6967 3.0198 -1.8672 -1.2191 -1.1804 -1.8672 -1.2191 -1.1804 -1.9234 -1.2566 -1.2156 -0.0000 0.0000 -0.0000 -0.0000 0.0000 -0.0000 -0.0000 0.0000 -0.0000 -0.0000 0.0000 -0.0000 -0.0000 0.0000 -0.0000 -0.0000 0.0000 -0.0000 -0.0000 0.0000 -0.0000 -0.0000 0.0000 -0.0000 -0.0000 0.0000 -0.0000 -0.0000 0.0000 -0.0000 0.0197 17.3874 -0.1931 -6.2810 6.6417 -0.0209 -0.0000 0.0000 -0.0000 -0.1683 -16.8794 -0.1947 1.5589 -4.2686 -1.8178 0.0000 -0.0000 -0.0000
0.5874 88.0313 11.1384 3.8423 0.6177 3.4908 -2.1659 -1.1935 -1.3586 -2.1659 -1.1935 -1.3586 -2.2311 -1.2304 -1.3991 -0.0000 0.0000 -0.0000 -0.0000 0.0000 -0.0000 -0.0000 0.0000 -0.0000 -0.0000 0.0000 -0.0000 -0.0000 0.0000 -0.0000 -0.0000 0.0000 -0.0000 -0.0000 0.0000 -0.0000 -0.0000 0.0000 -0.0000 -0.0000 0.0000 -0.0000 -0.0000 0.0000 -0.0000 0.0042 20.2071 -0.2347 -6.3137 6.0361 1.2273 -0.0000 0.0000 -0.0000 -0.2031 -19.5386 -0.1963 1.4620 -4.2326 -1.8164 -0.0000 0.0000 -0.0000
0.5962 88.2111 11.4693 4.3299 0.5756 3.8974 -2.4368 -1.1666 -1.5202 -2.4368 -1.1666 -1.5202 -2.5101 -1.2029 -1.5655 0.0000 -0.0000 -0.0000 0.0000 -0.0000 -0.0000 0.0000 -0.0000 -0.0000 0.0000 -0.0000 -0.0000 0.0000 -0.0000 -0.0000 0.0000 -0.0000 -0.0000 0.0000 -0.0000 -0.0000 0.0000 -0.0000 -0.0000 0.0000 -0.0000 -0.0000 0.0000 -0.0000 -0.0000 -0.0194 22.7461 -0.2705 -6.3590 5.4170 2.6969 0.0000 -0.0000 -0.0000 -0.2479 -20.1989 -0.1695 1.3760 -4.1963 -1.8152 0.0000 -0.0000 -0.0000
0.6029 88.3858 11.8313 4.7570 0.5060 4.2890 -2.6757 -1.1265 -1.6675 -2.6757 -1.1265 -1.6675 -2.7563 -1.1619 -1.7172 0.0000 -0.0000 -0.0000 0.0000 -0.0000 -0.0000 0.0000 -0.0000 -0.0000 0.0000 -0.0000 -0.0000 0.0000 -0.0000 -0.0000 0.0000 -0.0000 -0.0000 0.0000 -0.0000 -0.0000 0.0000 -0.0000 -0.0000 0.0000 -0.0000 -0.0000 0.0000 -0.0000 -0.0000 -0.0342 25.0311 -0.3318 -6.4131 3.9743 3.9474 -0.0000 0.0000 -0.0000 -0.2927 -20.4134 -0.1737 1.3448 -3.0218 -1.9033 -0.0000 0.0000 -0.0000
0.6069 88.5449 12.2260 5.1258 0.4390 4.6404 -2.8805 -1.0952 -1.8116 -2.8805 -1.0952 -1.8116 -2.9673 -1.1298 -1.8656 0.0000 -0.0000 -0.0000 0.0000 -0.0000 -0.0000 0.0000 -0.0000 -0.0000 0.0000 -0.0000 -0.0000 0.0000 -0.0000 -0.0000 0.0000 -0.0000 -0.0000 0.0000 -0.0000 -0.0000 0.0000 -0.0000 -0.0000 0.0000 -0.0000 -0.0000 0.0000 -0.0000 -0.0000 -0.0530 27.0044 -0.4089 -6.4388 2.6889 3.7748 -0.0000 0.0000 -0.0000 -0.3367 -20.5972 -0.1849 1.5015 2.3516 -2.3355 0.0000 -0.0000 -0.0000
0.6079 88.6782 12.6537 5.4288 0.3882 4.9410 -3.0494 -1.0768 -1.9355 -3.0494 -1.0768 -1.9355 -3.1412 -1.1111 -1.9932 -0.0000 0.0000 -0.0000 -0.0000 0.0000 -0.0000 -0.0000 0.0000 -0.0000 -0.0000 0.0000 -0.0000 -0.0000 0.0000 -0.0000 -0.0000 0.0000 -0.0000 -0.0000 0.0000 -0.0000 -0.0000 0.0000 -0.0000 -0.0000 0.0000 -0.0000 -0.0000 0.0000 -0.0000 -0.0706 28.6332 -0.4941 -6.4513 2.3618 3.3301 0.0000 -0.0000 -0.0000 -0.3823 -20.7498 -0.2090 1.7144 5.3695 -2.8147 0.0000 -0.0000 -0.0000
0.6056 88.7798 13.1133 5.6622 0.3752 5.1444 -3.1809 -1.0783 -2.0212 -3.1809 -1.0783 -2.0212 -3.2767 -1.1127 -2.0815 -0.0000 0.0000 -0.0000 -0.0000 0.0000 -0.0000 -0.0000 0.0000 -0.0000 -0.0000 0.0000 -0.0000 -0.0000 0.0000 -0.0000 -0.0000 0.0000 -0.0000 -0.0000 0.0000 -0.0000 -0.0000 0.0000 -0.0000 -0.0000 0.0000 -0.0000 -0.0000 0.0000 -0.0000 -0.0900 29.8702 -0.5308 -6.4576 2.2681 2.9071 -0.0000 0.0000 -0.0000 -0.4219 -20.8699 -0.1702 1.9468 6.0128 -3.3055 -0.0000 0.0000 -0.0000
0.5996 88.8452 13.6027 5.8238 0.3351 5.3122 -3.2724 -1.0615 -2.0793 -3.2724 -1.0615 -2.0793 -3.3710 -1.0955 -2.1414 -0.0000 0.0000 -0.0000 -0.0000 0.0000 -0.0000 -0.0000 0.0000 -0.0000 -0.0000 0.0000 -0.0000 -0.0000 0.0000 -0.0000 -0.0000 0.0000 -0.0000 -0.0000 0.0000 -0.0000 -0.0000 0.0000 -0.0000 -0.0000 0.0000 -0.0000 -0.0000 0.0000 -0.0000 -0.1026 30.7649 -0.5704 -6.4599 2.2255 2.5806 -0.0000 0.0000 -0.0000 -0.4436 -20.9469 -0.1914 2.2295 6.6347 -3.7189 0.0000 -0.0000 -0.0000
0.5898 88.8720 14.1189 5.9074 0.2939 5.3817 -3.3199 -1.0449 -2.1137 -3.3199 -1.0449 -2.1137 -3.4199 -1.0785 -2.1768 0.0000 -0.0000 -0.0000 0.0000 -0.0000 -0.0000 0.0000 -0.0000 -0.0000 0.0000 -0.0000 -0.0000 0.0000 -0.0000 -0.0000 0.0000 -0.0000 -0.0000 0.0000 -0.0000 -0.0000 0.0000 -0.0000 -0.0000 0.0000 -0.0000 -0.0000 0.0000 -0.0000 -0.0000 -0.1056 31.2415 -0.5644 -6.4593 2.2298 2.3837 -0.0000 -0.0000 0.0000 -0.4544 -20.9895 -0.1861 2.5693 7.2295 -4.0682 0.0000 -0.0000 -0.0000
0.5763 88.8599 14.6580 5.9190 0.2809 5.3646 -3.3298 -1.0319 -2.1126 -3.3298 -1.0319 -2.1126 -3.4301 -1.0651 -2.1757 -0.0000 0.0000 -0.0000 -0.0000 0.0000 -0.0000 -0.0000 0.0000 -0.0000 -0.0000 0.0000 -0.0000 -0.0000 0.0000 -0.0000 -0.0000 0.0000 -0.0000 -0.0000 0.0000 -0.0000 -0.0000 0.0000 -0.0000 -0.0000 0.0000 -0.0000 -0.0000 0.0000 -0.0000 -0.1089 31.2891 -0.5428 -6.4579 2.2507 2.3365 -0.0000 0.0000 -0.0000 -0.4545 -20.9923 -0.1491 2.9798 7.7811 -4.3476 -0.0000 0.0000 -0.0000
0.5591 88.8109 15.2153 5.8582 0.3022 5.2806 -3.2964 -1.0419 -2.0912 -3.2964 -1.0419 -2.0912 -3.3957 -1.0753 -2.1537 -0.0000 0.0000 -0.0000 -0.0000 0.0000 -0.0000 -0.0000 0.0000 -0.0000 -0.0000 0.0000 -0.0000 -0.0000 0.0000 -0.0000 -0.0000 0.0000 -0.0000 -0.0000 0.0000 -0.0000 -0.0000 0.0000 -0.0000 -0.0000 0.0000 -0.0000 -0.0000 0.0000 -0.0000 -0.1058 30.9159 -0.4990 -6.4546 2.2676 2.4152 -0.0000 0.0000 0.0000 -0.4448 -20.9592 -0.1088 3.4909 8.2854 -4.5238 -0.0000 0.0000 -0.0000
0.5385 88.7290 15.7858 5.7243 0.3148 5.1287 -3.2209 -1.0415 -2.0375 -3.2209 -1.0415 -2.0375 -3.3180 -1.0748 -2.0983 -0.0000 0.0000 -0.0000 -0.0000 0.0000 -0.0000 -0.0000 0.0000 -0.0000 -0.0000 0.0000 -0.0000 -0.0000 0.0000 -0.0000 -0.0000 0.0000 -0.0000 -0.0000 0.0000 -0.0000 -0.0000 0.0000 -0.0000 -0.0000 0.0000 -0.0000 -0.0000 0.0000 -0.0000 -0.1008 30.1674 -0.4424 -6.4489 2.2789 2.6305 -0.0000 0.0000 -0.0000 -0.4272 -20.8869 -0.0707 4.1493 8.7369 -4.5569 0.0000 0.0000 -0.0000
0.5150 88.6194 16.3637 5.5184 0.3601 4.9113 -3.1054 -1.0539 -1.9483 -3.1054 -1.0539 -1.9483 -3.1989 -1.0875 -2.0064 -0.0000 0.0000 -0.0000 -0.0000 0.0000 -0.0000 -0.0000 0.0000 -0.0000 -0.0000 0.0000 -0.0000 -0.0000 0.0000 -0.0000 -0.0000 0.0000 -0.0000 -0.0000 0.0000 -0.0000 -0.0000 0.0000 -0.0000 -0.0000 0.0000 -0.0000 -0.0000 0.0000 -0.0000 -0.0871 29.0144 -0.3789 -6.4421 2.2816 2.9820 -0.0000 0.0000 -0.0000 -0.3983 -20.7808 -0.0329 4.9914 9.1295 -4.4010 0.0000 -0.0000 -0.0000
0.4890 88.4892 16.9434 5.2358 0.4016 4.6308 -2.9491 -1.0613 -1.8363 -2.9491 -1.0613 -1.8363 -3.0379 -1.0949 -1.8911 0.0000 -0.0000 -0.0000 0.0000 -0.0000 -0.0000 0.0000 -0.0000 -0.0000 0.0000 -0.0000 -0.0000 0.0000 -0.0000 -0.0000 0.0000 -0.0000 -0.0000 0.0000 -0.0000 -0.0000 0.0000 -0.0000 -0.0000 0.0000 -0.0000 -0.0000 0.0000 -0.0000 -0.0000 -0.0601 27.5096 -0.3030 -6.4324 2.2710 3.4575 -0.0000 0.0000 -0.0000 -0.3531 -20.6388 -0.0107 5.1053 9.4581 -4.0027 -0.0000 -0.0000 -0.0000
0.4611 88.3461 17.5185 4.8873 0.4518 4.2943 -2.7544 -1.0748 -1.6988 -2.7544 -1.0748 -1.6988 -2.8374 -1.1086 -1.7495 -0.0000 0.0000 -0.0000 -0.0000 0.0000 -0.0000 -0.0000 0.0000 -0.0000 -0.0000 0.0000 -0.0000 -0.0000 0.0000 -0.0000 -0.0000 0.0000 -0.0000 -0.0000 0.0000 -0.0000 -0.0000 0.0000 -0.0000 -0.0000 0.0000 -0.0000 -0.0000 0.0000 -0.0000 -0.0319 25.6595 -0.2212 -6.4190 2.2479 4.0481 -0.0000 0.0000 -0.0000 -0.3038 -20.4636 0.0085 5.2349 9.7182 -3.3506 -0.0000 0.0000 0.0000
0.4321 88.1981 18.0829 4.4753 0.5090 3.8988 -2.5255 -1.0897 -1.5425 -2.5255 -1.0897 -1.5425 -2.6016 -1.1238 -1.5885 -0.0000 0.0000 -0.0000 -0.0000 0.0000 -0.0000 -0.0000 0.0000 -0.0000 -0.0000 0.0000 -0.0000 -0.0000 0.0000 -0.0000 -0.0000 0.0000 -0.0000 -0.0000 0.0000 -0.0000 -0.0000 0.0000 -0.0000 -0.0000 0.0000 -0.0000 -0.0000 0.0000 -0.0000 -0.0041 23.4840 -0.1213 -6.4008 2.2127 4.7320 0.0000 -0.0000 -0.0000 -0.2561 -20.2581 0.0321 5.3862 9.9070 -2.4535 -0.0000 0.0000 0.0000
0.4027 88.0538 18.6304 4.0114 0.5784 3.4579 -2.2671 -1.1138 -1.3615 -2.2671 -1.1138 -1.3615 -2.3353 -1.1484 -1.4020 -0.0000 0.0000 -0.0000 -0.0000 0.0000 -0.0000 -0.0000 0.0000 -0.0000 -0.0000 0.0000 -0.0000 -0.0000 0.0000 -0.0000 -0.0000 0.0000 -0.0000 -0.0000 0.0000 -0.0000 -0.0000 0.0000 -0.0000 -0.0000 0.0000 -0.0000 -0.0000 0.0000 -0.0000 0.0138 21.0102 -0.0388 -6.3774 2.1612 5.5130 0.0000 -0.0000 -0.0000 -0.2196 -20.0244 0.0617 5.5548 10.0206 -1.3465 0.0000 0.0000 -0.0000
0.3736 87.9209 19.1548 3.4950 0.6666 2.9964 -1.9789 -1.1476 -1.1716 -1.9789 -1.1476 -1.1716 -2.0385 -1.1830 -1.2065 -0.0000 0.0000 -0.0000 -0.0000 0.0000 -0.0000 -0.0000 0.0000 -0.0000 -0.0000 0.0000 -0.0000 -0.0000 0.0000 -0.0000 -0.0000 0.0000 -0.0000 -0.0000 0.0000 -0.0000 -0.0000 0.0000 -0.0000 -0.0000 0.0000 -0.0000 -0.0000 0.0000 -0.0000 0.0315 18.2612 0.0168 -6.3481 2.0882 6.3640 -0.0000 0.0000 -0.0000 -0.1931 -17.6755 0.0700 5.7330 10.0586 -0.1099 -0.0000 0.0000 0.0000
0.3455 87.8068 19.6501 2.9288 0.7003 2.4881 -1.6641 -1.1607 -0.9803 -1.6641 -1.1607 -0.9803 -1.7142 -1.1964 -1.0095 -0.0000 0.0000 -0.0000 -0.0000 0.0000 -0.0000 -0.0000 0.0000 -0.0000 -0.0000 0.0000 -0.0000 -0.0000 0.0000 -0.0000 -0.0000 0.0000 -0.0000 -0.0000 0.0000 -0.0000 -0.0000 0.0000 -0.0000 -0.0000 0.0000 -0.0000 -0.0000 0.0000 -0.0000 0.0482 15.3403 0.0684 -6.3122 1.9937 7.2843 0.0000 -0.0000 -0.0000 -0.1628 -14.8240 0.0817 5.9063 10.0199 1.1263 -0.0000 0.0000 0.0000
0.3190 87.7173 20.1105 2.3241 0.7251 1.9364 -1.3289 -1.1735 -0.7776 -1.3289 -1.1735 -0.7776 -1.3689 -1.2093 -0.8007 0.0000 -0.0000 -0.0000 0.0000 -0.0000 -0.0000 0.0000 -0.0000 -0.0000 0.0000 -0.0000 -0.0000 0.0000 -0.0000 -0.0000 0.0000 -0.0000 -0.0000 0.0000 -0.0000 -0.0000 0.0000 -0.0000 -0.0000 0.0000 -0.0000 -0.0000 0.0000 -0.0000 -0.0000 0.0622 12.2405 0.1208 -6.2695 1.8793 8.2458 -0.0000 0.0000 -0.0000 -0.1392 -11.7773 0.1105 6.0638 9.9062 2.2307 -0.0000 0.0000 0.0000
0.2947 87.6573 20.5309 1.6924 0.7566 1.3558 -0.9768 -1.1881 -0.5437 -0.9768 -1.1881 -0.5437 -1.0062 -1.2243 -0.5599 -0.0000 0.0000 -0.0000 -0.0000 0.0000 -0.0000 -0.0000 0.0000 -0.0000 -0.0000 0.0000 -0.0000 -0.0000 0.0000 -0.0000 -0.0000 0.0000 -0.0000 -0.0000 0.0000 -0.0000 -0.0000 0.0000 -0.0000 -0.0000 0.0000 -0.0000 -0.0000 0.0000 -0.0000 0.0682 8.9891 0.1746 -6.2199 1.7404 9.2244 -0.0000 0.0000 -0.0000 -0.1228 -8.5879 0.1341 6.1964 9.7207 3.1165 0.0000 0.0000 -0.0000
0.2725 87.4569 20.9156 0.9272 1.9361 0.6047 -0.5292 -2.8270 -0.2550 -0.5292 -2.8270 -0.2550 -0.5451 -2.9127 -0.2623 0.0000 -0.0000 -0.0000 0.0000 -0.0000 -0.0000 0.0000 -0.0000 -0.0000 0.0000 -0.0000 -0.0000 0.0000 -0.0000 -0.0000 0.0000 -0.0000 -0.0000 0.0000 -0.0000 -0.0000 0.0000 -0.0000 -0.0000 0.0000 -0.0000 -0.0000 0.0000 -0.0000 -0.0000 0.0497 4.6274 0.2031 -6.1670 1.4969 10.0176 0.0000 -0.0000 -0.0000 -0.1166 -4.3399 0.1305 7.6101 10.9851 10.8790 -0.0000 -0.0000 -0.0000
0.2523 87.3376 21.2688 -0.6688 2.2124 -0.7983 0.3519 -3.2298 0.2197 0.3519 -3.2298 0.2197 0.3624 -3.3277 0.2260 -0.0000 0.0000 -0.0000 -0.0000 0.0000 -0.0000 -0.0000 0.0000 -0.0000 -0.0000 0.0000 -0.0000 -0.0000 0.0000 -0.0000 -0.0000 0.0000 -0.0000 -0.0000 0.0000 -0.0000 -0.0000 0.0000 -0.0000 -0.0000 0.0000 -0.0000 -0.0000 0.0000 -0.0000 0.0557 -2.7541 0.2607 -6.0307 0.9329 10.2270 -0.0000 0.0000 -0.0000 -0.0400 3.0487 0.1201 7.9436 10.5065 11.2164 -0.0000 0.0000 0.0000
0.2337 87.3396 21.6049 -2.4398 2.2067 -2.3382 1.3211 -3.2956 0.7326 1.3211 -3.2956 0.7326 1.3605 -3.3958 0.7537 0.0000 -0.0000 -0.0000 0.0000 -0.0000 -0.0000 0.0000 -0.0000 -0.0000 0.0000 -0.0000 -0.0000 0.0000 -0.0000 -0.0000 0.0000 -0.0000 -0.0000 0.0000 -0.0000 -0.0000 0.0000 -0.0000 -0.0000 0.0000 -0.0000 -0.0000 0.0000 -0.0000 -0.0000 0.0909 -10.6812 0.3180 -5.8511 0.1887 10.4361 -0.0000 0.0000 -0.0000 0.0590 11.1430 0.1865 7.7542 9.5055 10.9499 -0.0000 0.0000 0.0000
0.2161 87.4485 21.9522 -4.1629 2.0590 -3.8351 2.2648 -3.2432 1.2296 2.2648 -3.2432 1.2296 2.3324 -3.3422 1.2649 0.0000 -0.0000 -0.0000 0.0000 -0.0000 -0.0000 0.0000 -0.0000 -0.0000 0.0000 -0.0000 -0.0000 0.0000 -0.0000 -0.0000 0.0000 -0.0000 -0.0000 0.0000 -0.0000 -0.0000 0.0000 -0.0000 -0.0000 0.0000 -0.0000 -0.0000 0.0000 -0.0000 -0.0000 0.1656 -18.3223 0.3517 -5.6504 -0.6517 10.6105 -0.0000 0.0000 -0.0000 0.1786 19.1463 0.3466 7.5584 8.2731 10.5678 -0.0000 0.0000 -0.0000
0.1998 87.6327 22.3326 -5.7413 1.8448 -5.2068 3.1287 -3.1452 1.6822 3.1287 -3.1452 1.6822 3.2222 -3.2419 1.7305 -0.0000 0.0000 -0.0000 -0.0000 0.0000 -0.0000 -0.0000 0.0000 -0.0000 -0.0000 0.0000 -0.0000 -0.0000 0.0000 -0.0000 -0.0000 0.0000 -0.0000 -0.0000 0.0000 -0.0000 -0.0000 0.0000 -0.0000 -0.0000 0.0000 -0.0000 -0.0000 0.0000 -0.0000 0.3078 -20.5307 0.3522 -5.4472 -1.5108 10.7407 -0.0000 0.0000 -0.0000 0.3365 26.6101 0.6235 7.4735 6.9198 10.1343 0.0000 -0.0000 -0.0000
0.1857 87.8529 22.7616 -7.1081 1.5995 -6.3987 3.8768 -3.0304 2.0719 3.8768 -3.0304 2.0719 3.9927 -3.1244 2.1316 -0.0000 0.0000 -0.0000 -0.0000 0.0000 -0.0000 -0.0000 0.0000 -0.0000 -0.0000 0.0000 -0.0000 -0.0000 0.0000 -0.0000 -0.0000 0.0000 -0.0000 -0.0000 0.0000 -0.0000 -0.0000 0.0000 -0.0000 -0.0000 0.0000 -0.0000 -0.0000 0.0000 -0.0000 0.5243 -21.1369 0.2950 -5.2581 -2.3127 10.8274 -0.0000 0.0000 -0.0000 0.5354 33.2077 1.0076 7.5330 5.5211 6.1644 0.0000 -0.0000 -0.0000
0.1753 88.0473 23.2487 -8.2207 1.3619 -7.3707 4.4841 -2.9179 2.3849 4.4841 -2.9179 2.3849 4.6182 -3.0092 2.4536 0.0000 -0.0000 -0.0000 0.0000 -0.0000 -0.0000 0.0000 -0.0000 -0.0000 0.0000 -0.0000 -0.0000 0.0000 -0.0000 -0.0000 0.0000 -0.0000 -0.0000 0.0000 -0.0000 -0.0000 0.0000 -0.0000 -0.0000 0.0000 -0.0000 -0.0000 0.0000 -0.0000 -0.0000 0.7977 -21.6308 0.1791 -5.1242 5.0404 10.9342 -0.0000 0.0000 0.0000 0.7601 38.6577 1.4589 7.6314 3.1381 4.6035 0.0000 -0.0000 -0.0000
0.1702 88.1713 23.7974 -9.0381 1.1632 -8.0931 4.9312 -2.8238 2.6122 4.9312 -2.8238 2.6122 5.0787 -2.9129 2.6876 0.0000 -0.0000 -0.0000 0.0000 -0.0000 -0.0000 0.0000 -0.0000 -0.0000 0.0000 -0.0000 -0.0000 0.0000 -0.0000 -0.0000 0.0000 -0.0000 -0.0000 0.0000 -0.0000 -0.0000 0.0000 -0.0000 -0.0000 0.0000 -0.0000 -0.0000 0.0000 -0.0000 -0.0000 1.0740 -21.9953 0.0408 -5.0775 6.4187 11.0994 -0.0000 0.0000 0.0000 0.9777 42.7258 1.9007 7.6455 1.2763 5.5840 0.0000 -0.0000 -0.0000
0.1718 88.1882 24.4060 -9.5350 1.0315 -8.5414 5.2046 -2.7609 2.7484 5.2046 -2.7609 2.7484 5.3604 -2.8483 2.8278 -0.0000 0.0000 -0.0000 -0.0000 0.0000 -0.0000 -0.0000 0.0000 -0.0000 -0.0000 0.0000 -0.0000 -0.0000 0.0000 -0.0000 -0.0000 0.0000 -0.0000 -0.0000 0.0000 -0.0000 -0.0000 0.0000 -0.0000 -0.0000 0.0000 -0.0000 -0.0000 0.0000 -0.0000 1.2895 -22.2184 -0.0811 -5.1082 7.8851 11.2667 0.0000 -0.0000 -0.0000 1.1360 45.2373 2.2232 7.6347 0.7545 6.5751 -0.0000 -0.0000 0.0000
0.1811 88.0821 25.0679 -9.7030 0.9877 -8.7065 5.2962 -2.7370 2.7921 5.2962 -2.7370 2.7921 5.4548 -2.8239 2.8728 0.0000 -0.0000 -0.0000 0.0000 -0.0000 -0.0000 0.0000 -0.0000 -0.0000 0.0000 -0.0000 -0.0000 0.0000 -0.0000 -0.0000 0.0000 -0.0000 -0.0000 0.0000 -0.0000 -0.0000 0.0000 -0.0000 -0.0000 0.0000 -0.0000 -0.0000 0.0000 -0.0000 -0.0000 1.3665 -22.2930 -0.1161 -5.2585 9.2745 11.3556 0.0000 -0.0000 -0.0000 1.1926 46.0792 2.3567 7.6303 0.6170 6.9191 0.0000 -0.0000 -0.0000
0.1982 87.8623 25.7725 -9.5349 1.0324 -8.5647 5.2025 -2.7573 2.7369 5.2025 -2.7573 2.7369 5.3583 -2.8446 2.8159 -0.0000 0.0000 -0.0000 -0.0000 0.0000 -0.0000 -0.0000 0.0000 -0.0000 -0.0000 0.0000 -0.0000 -0.0000 0.0000 -0.0000 -0.0000 0.0000 -0.0000 -0.0000 0.0000 -0.0000 -0.0000 0.0000 -0.0000 -0.0000 0.0000 -0.0000 -0.0000 0.0000 -0.0000 1.2881 -22.2162 -0.0645 -5.6702 10.5084 11.2026 -0.0000 0.0000 -0.0000 1.1254 45.2265 2.2474 7.6409 0.6174 6.4548 -0.0000 0.0000 -0.0000
0.2229 87.5611 26.5057 -9.0353 1.1650 -8.1352 4.9278 -2.8177 2.5880 4.9278 -2.8177 2.5880 5.0752 -2.9064 2.6627 -0.0000 0.0000 -0.0000 -0.0000 0.0000 -0.0000 -0.0000 0.0000 -0.0000 -0.0000 0.0000 -0.0000 -0.0000 0.0000 -0.0000 -0.0000 0.0000 -0.0000 -0.0000 0.0000 -0.0000 -0.0000 0.0000 -0.0000 -0.0000 0.0000 -0.0000 -0.0000 0.0000 -0.0000 1.0879 -21.9910 0.0541 -6.7290 11.5081 10.3975 -0.0000 0.0000 -0.0000 0.9571 42.7080 1.9490 7.6646 0.6970 5.1473 -0.0000 0.0000 -0.0000
0.2539 87.5495 27.2508 -8.2169 1.3656 -7.4254 4.4786 -2.9102 2.3476 4.4786 -2.9102 2.3476 4.6126 -3.0012 2.4152 -0.0000 0.0000 -0.0000 -0.0000 0.0000 -0.0000 -0.0000 0.0000 -0.0000 -0.0000 0.0000 -0.0000 -0.0000 0.0000 -0.0000 -0.0000 0.0000 -0.0000 -0.0000 0.0000 -0.0000 -0.0000 0.0000 -0.0000 -0.0000 0.0000 -0.0000 -0.0000 0.0000 -0.0000 0.8267 -21.6246 0.1807 -12.2496 9.2071 -13.1794 -0.0000 0.0000 -0.0000 0.7249 38.6270 1.5361 7.6911 0.8379 3.0172 -0.0000 0.0000 -0.0000
0.2894 87.7152 27.9892 -7.1064 1.6055 -6.4618 3.8698 -3.0226 2.0202 3.8698 -3.0226 2.0202 3.9855 -3.1163 2.0783 -0.0000 0.0000 -0.0000 -0.0000 0.0000 -0.0000 -0.0000 0.0000 -0.0000 -0.0000 0.0000 -0.0000 -0.0000 0.0000 -0.0000 -0.0000 0.0000 -0.0000 -0.0000 0.0000 -0.0000 -0.0000 0.0000 -0.0000 -0.0000 0.0000 -0.0000 -0.0000 0.0000 -0.0000 0.5722 -21.1288 0.2700 -13.2184 6.7630 -13.8633 -0.0000 0.0000 -0.0000 0.4805 33.1668 1.1149 7.7042 1.0119 0.1186 0.0000 -0.0000 -0.0000
0.3271 87.9421 28.7016 -5.7330 1.8512 -5.2735 3.1189 -3.1377 1.6202 3.1189 -3.1377 1.6202 3.2121 -3.2341 1.6667 0.0000 -0.0000 -0.0000 0.0000 -0.0000 -0.0000 0.0000 -0.0000 -0.0000 0.0000 -0.0000 -0.0000 0.0000 -0.0000 -0.0000 0.0000 -0.0000 -0.0000 0.0000 -0.0000 -0.0000 0.0000 -0.0000 -0.0000 0.0000 -0.0000 -0.0000 0.0000 -0.0000 -0.0000 0.3660 -20.5206 0.3054 -13.5716 -0.7017 -13.8605 0.0000 -0.0000 -0.0000 0.2654 26.5637 0.7664 7.6840 1.1574 -3.4505 -0.0000 0.0000 -0.0000
0.3644 88.1103 29.3682 -4.1506 2.0614 -3.9001 2.2526 -3.2352 1.1544 2.2526 -3.2352 1.1544 2.3199 -3.3339 1.1875 0.0000 0.0000 -0.0000 0.0000 0.0000 -0.0000 0.0000 0.0000 -0.0000 0.0000 0.0000 -0.0000 0.0000 0.0000 -0.0000 0.0000 0.0000 -0.0000 0.0000 0.0000 -0.0000 0.0000 0.0000 -0.0000 0.0000 0.0000 -0.0000 0.0000 0.0000 -0.0000 0.2294 -18.1876 0.2941 -13.6956 -21.3922 -13.7531 -0.0000 0.0000 0.0000 0.1072 19.0888 0.5279 7.6125 1.1950 -7.5111 -0.0000 0.0000 -0.0000
0.3990 88.1639 29.9701 -2.4099 2.2157 -2.3875 1.3015 -3.3173 0.6359 1.3015 -3.3173 0.6359 1.3404 -3.4180 0.6541 -0.0000 0.0000 -0.0000 -0.0000 0.0000 -0.0000 -0.0000 0.0000 -0.0000 -0.0000 0.0000 -0.0000 -0.0000 0.0000 -0.0000 -0.0000 0.0000 -0.0000 -0.0000 0.0000 -0.0000 -0.0000 0.0000 -0.0000 -0.0000 0.0000 -0.0000 -0.0000 0.0000 -0.0000 0.1414 -10.4751 0.2615 -13.5994 -37.4178 -13.8080 -0.0000 0.0000 -0.0000 0.0015 11.0398 0.3862 7.4784 1.0113 -10.1822 -0.0000 0.0000 -0.0000
0.4310 88.1122 30.5154 -0.5782 2.3147 -0.7480 0.2986 -3.3704 0.0859 0.2986 -3.3704 0.0859 0.3076 -3.4726 0.0882 0.0000 -0.0000 0.0000 0.0000 -0.0000 0.0000 0.0000 -0.0000 0.0000 0.0000 -0.0000 0.0000 0.0000 -0.0000 0.0000 0.0000 -0.0000 0.0000 0.0000 -0.0000 0.0000 0.0000 -0.0000 0.0000 0.0000 -0.0000 0.0000 0.0000 -0.0000 0.0000 0.0795 -2.2747 0.1876 -13.1423 -47.5955 -14.2269 0.0000 -0.0000 -0.0000 -0.0667 2.6298 0.2820 7.2800 0.5556 -10.6065 0.0000 -0.0000 -0.0000
0.4594 88.0058 30.9984 1.2812 2.3019 0.9329 -0.7192 -3.3598 -0.4818 -0.7192 -3.3598 -0.4818 -0.7406 -3.4617 -0.4958 0.0000 -0.0000 -0.0000 0.0000 -0.0000 -0.0000 0.0000 -0.0000 -0.0000 0.0000 -0.0000 -0.0000 0.0000 -0.0000 -0.0000 0.0000 -0.0000 -0.0000 0.0000 -0.0000 -0.0000 0.0000 -0.0000 -0.0000 0.0000 -0.0000 -0.0000 0.0000 -0.0000 -0.0000 0.0169 6.1467 0.0692 -12.2818 -51.0651 -15.0060 0.0000 -0.0000 -0.0000 -0.1267 -5.7633 0.1967 7.0276 -0.2442 -10.9981 -0.0000 0.0000 -0.0000
0.4861 87.9096 31.4557 3.0932 2.1944 2.5790 -1.7124 -3.3127 -1.0484 -1.7124 -3.3127 -1.0484 -1.7634 -3.4136 -1.0786 -0.0000 0.0000 -0.0000 -0.0000 0.0000 -0.0000 -0.0000 0.0000 -0.0000 -0.0000 0.0000 -0.0000 -0.0000 0.0000 -0.0000 -0.0000 0.0000 -0.0000 -0.0000 0.0000 -0.0000 -0.0000 0.0000 -0.0000 -0.0000 0.0000 -0.0000 -0.0000 0.0000 -0.0000 -0.0641 14.4880 -0.1171 -11.3126 -47.5810 -15.7300 0.0000 -0.0000 -0.0000 -0.2083 -13.8635 0.1228 6.7396 -1.3624 -11.3331 0.0000 -0.0000 -0.0000
0.5116 87.8805 31.9164 4.7885 2.0070 4.1243 -2.6422 -3.2372 -1.5739 -2.6422 -3.2372 -1.5739 -2.7210 -3.3364 -1.6193 -0.0000 0.0000 -0.0000 -0.0000 0.0000 -0.0000 -0.0000 0.0000 -0.0000 -0.0000 0.0000 -0.0000 -0.0000 0.0000 -0.0000 -0.0000 0.0000 -0.0000 -0.0000 0.0000 -0.0000 -0.0000 0.0000 -0.0000 -0.0000 0.0000 -0.0000 -0.0000 0.0000 -0.0000 -0.1764 22.4442 -0.3979 -10.5471 -38.3097 -15.9125 -0.0000 0.0000 -0.0000 -0.3357 -20.1412 0.0768 6.4373 -2.6918 -11.5975 -0.0000 0.0000 -0.0000
0.5356 87.9465 32.4029 6.3072 1.7710 5.5098 -3.4760 -3.1295 -2.0486 -3.4760 -3.1295 -2.0486 -3.5797 -3.2263 -2.1077 -0.0000 0.0000 -0.0000 -0.0000 0.0000 -0.0000 -0.0000 0.0000 -0.0000 -0.0000 0.0000 -0.0000 -0.0000 0.0000 -0.0000 -0.0000 0.0000 -0.0000 -0.0000 0.0000 -0.0000 -0.0000 0.0000 -0.0000 -0.0000 0.0000 -0.0000 -0.0000 0.0000 -0.0000 -0.3301 29.7083 -0.7762 -9.9467 -25.7237 -15.3939 -0.0000 0.0000 -0.0000 -0.5343 -20.8166 0.0843 6.1435 -4.0886 -11.7882 0.0000 -0.0000 -0.0000
0.5569 88.0919 32.9309 7.5943 1.5155 6.6953 -4.1822 -3.0201 -2.4517 -4.1822 -3.0201 -2.4517 -4.3070 -3.1143 -2.5226 -0.0000 0.0000 0.0000 -0.0000 0.0000 0.0000 -0.0000 0.0000 0.0000 -0.0000 0.0000 0.0000 -0.0000 0.0000 0.0000 -0.0000 0.0000 0.0000 -0.0000 0.0000 0.0000 -0.0000 0.0000 0.0000 -0.0000 0.0000 0.0000 -0.0000 0.0000 0.0000 -0.5174 35.9953 -1.2459 -9.3535 -13.2305 -14.2030 -0.0000 0.0000 -0.0000 -0.8024 -21.3906 0.1548 5.8788 -5.3952 -11.9122 -0.0000 0.0000 -0.0000
0.5741 88.1164 33.5095 8.6128 1.2839 7.6418 -4.7406 -2.9205 -2.7718 -4.7406 -2.9205 -2.7718 -4.8821 -3.0125 -2.8521 -0.0000 0.0000 -0.0000 -0.0000 0.0000 -0.0000 -0.0000 0.0000 -0.0000 -0.0000 0.0000 -0.0000 -0.0000 0.0000 -0.0000 -0.0000 0.0000 -0.0000 -0.0000 0.0000 -0.0000 -0.0000 0.0000 -0.0000 -0.0000 0.0000 -0.0000 -0.0000 0.0000 -0.0000 -0.7232 41.0408 -1.7415 -8.9765 -15.3894 -14.5551 0.0000 -0.0000 0.0000 -1.1211 -21.8463 0.2881 5.7230 5.1086 -11.9465 -0.0000 0.0000 -0.0000
0.5854 87.9292 34.1419 9.3303 1.1244 8.3085 -5.1350 -2.8484 -2.9998 -5.1350 -2.8484 -2.9998 -5.2884 -2.9388 -3.0868 0.0000 0.0000 -0.0000 0.0000 0.0000 -0.0000 0.0000 0.0000 -0.0000 0.0000 0.0000 -0.0000 0.0000 0.0000 -0.0000 0.0000 0.0000 -0.0000 0.0000 0.0000 -0.0000 0.0000 0.0000 -0.0000 0.0000 0.0000 -0.0000 0.0000 0.0000 -0.0000 -0.9170 44.6153 -2.1717 -8.7000 -19.1928 -15.1546 -0.0000 0.0000 0.0000 -1.4246 -22.1694 0.4514 5.6974 6.5511 -11.9845 0.0000 -0.0000 -0.0000
0.5894 87.5221 34.8261 9.7186 1.0242 8.6372 -5.3495 -2.8083 -3.1167 -5.3495 -2.8083 -3.1167 -5.5094 -2.8978 -3.2070 -0.0000 0.0000 -0.0000 -0.0000 0.0000 -0.0000 -0.0000 0.0000 -0.0000 -0.0000 0.0000 -0.0000 -0.0000 0.0000 -0.0000 -0.0000 0.0000 -0.0000 -0.0000 0.0000 -0.0000 -0.0000 0.0000 -0.0000 -0.0000 0.0000 -0.0000 -0.0000 0.0000 -0.0000 -1.0383 46.5948 -2.3830 -8.5207 -21.5718 -15.5683 0.0000 -0.0000 -0.0000 -1.6175 -22.3469 0.5891 5.8289 8.0018 -11.9622 -0.0000 0.0000 -0.0000
0.5852 86.9693 35.5548 9.7710 1.0093 8.6510 -5.3788 -2.8140 -3.1236 -5.3788 -2.8140 -3.1236 -5.5395 -2.9037 -3.2141 0.0000 -0.0000 -0.0000 0.0000 -0.0000 -0.0000 0.0000 -0.0000 -0.0000 0.0000 -0.0000 -0.0000 0.0000 -0.0000 -0.0000 0.0000 -0.0000 -0.0000 0.0000 -0.0000 -0.0000 0.0000 -0.0000 -0.0000 0.0000 -0.0000 -0.0000 0.0000 -0.0000 -0.0000 -1.0533 46.8553 -2.3633 -8.4940 -21.8439 -15.6237 -0.0000 0.0000 -0.0000 -1.6396 -22.3700 0.6366 6.2085 9.3402 -11.7483 0.0000 -0.0000 -0.0000
0.5727 86.3902 36.3170 9.4909 1.0871 8.3614 -5.2245 -2.8492 -3.0228 -5.2245 -2.8492 -3.0228 -5.3806 -2.9397 -3.1104 0.0000 -0.0000 -0.0000 0.0000 -0.0000 -0.0000 0.0000 -0.0000 -0.0000 0.0000 -0.0000 -0.0000 0.0000 -0.0000 -0.0000 0.0000 -0.0000 -0.0000 0.0000 -0.0000 -0.0000 0.0000 -0.0000 -0.0000 0.0000 -0.0000 -0.0000 0.0000 -0.0000 -0.0000 -0.9563 45.4065 -2.1284 -8.6275 -19.8914 -15.2849 0.0000 -0.0000 0.0000 -1.5001 -22.2410 0.5812 7.0641 10.4772 -11.0797 0.0000 -0.0000 -0.0000
0.5524 86.2152 37.0982 8.8797 1.2547 7.7796 -4.8877 -2.9242 -2.8220 -4.8877 -2.9242 -2.8220 -5.0337 -3.0165 -2.9037 -0.0000 0.0000 -0.0000 -0.0000 0.0000 -0.0000 -0.0000 0.0000 -0.0000 -0.0000 0.0000 -0.0000 -0.0000 0.0000 -0.0000 -0.0000 0.0000 -0.0000 -0.0000 0.0000 -0.0000 -0.0000 0.0000 -0.0000 -0.0000 0.0000 -0.0000 -0.0000 0.0000 -0.0000 -0.7647 42.3068 -1.7155 -8.8712 -15.7341 -14.6126 -0.0000 0.0000 -0.0000 -1.2352 -21.9662 0.4632 11.3458 9.3193 11.4593 0.0000 -0.0000 -0.0000
0.5257 86.3787 37.8817 7.9571 1.4758 6.9165 -4.3812 -3.0293 -2.5270 -4.3812 -3.0293 -2.5270 -4.5120 -3.1241 -2.6000 -0.0000 0.0000 -0.0000 -0.0000 0.0000 -0.0000 -0.0000 0.0000 -0.0000 -0.0000 0.0000 -0.0000 -0.0000 0.0000 -0.0000 -0.0000 0.0000 -0.0000 -0.0000 0.0000 -0.0000 -0.0000 0.0000 -0.0000 -0.0000 0.0000 -0.0000 -0.0000 0.0000 -0.0000 -0.5385 37.7042 -1.2262 -9.1436 -9.5808 -13.7159 0.0000 -0.0000 -0.0000 -0.9306 -21.5527 0.3540 12.7376 7.3894 12.6233 -0.0000 -0.0000 0.0000
0.4945 86.7187 38.6488 6.7541 1.7292 5.8030 -3.7191 -3.1443 -2.1467 -3.7191 -3.1443 -2.1467 -3.8300 -3.2417 -2.2086 -0.0000 0.0000 -0.0000 -0.0000 0.0000 -0.0000 -0.0000 0.0000 -0.0000 -0.0000 0.0000 -0.0000 -0.0000 0.0000 -0.0000 -0.0000 0.0000 -0.0000 -0.0000 0.0000 -0.0000 -0.0000 0.0000 -0.0000 -0.0000 0.0000 -0.0000 -0.0000 0.0000 -0.0000 -0.3232 31.7881 -0.7603 -9.3705 -1.8980 -12.7013 -0.0000 0.0000 0.0000 -0.6587 -21.0146 0.2967 13.3263 5.3140 12.8100 -0.0000 -0.0000 -0.0000
0.4613 87.0187 39.3803 5.3027 1.9768 4.4742 -2.9225 -3.2562 -1.6917 -2.9225 -3.2562 -1.6917 -3.0097 -3.3561 -1.7405 -0.0000 0.0000 -0.0000 -0.0000 0.0000 -0.0000 -0.0000 0.0000 -0.0000 -0.0000 0.0000 -0.0000 -0.0000 0.0000 -0.0000 -0.0000 0.0000 -0.0000 -0.0000 0.0000 -0.0000 -0.0000 0.0000 -0.0000 -0.0000 0.0000 -0.0000 -0.0000 0.0000 -0.0000 -0.1463 24.8067 -0.3748 -9.4984 5.1762 -11.6340 0.0000 -0.0000 0.0000 -0.4380 -20.3692 0.2944 13.6381 -11.7505 12.6963 0.0000 -0.0000 -0.0000
0.4286 87.1181 40.0569 3.6556 2.1812 2.9726 -2.0199 -3.3534 -1.1768 -2.0199 -3.3534 -1.1768 -2.0801 -3.4556 -1.2107 0.0000 -0.0000 -0.0000 0.0000 -0.0000 -0.0000 0.0000 -0.0000 -0.0000 0.0000 -0.0000 -0.0000 0.0000 -0.0000 -0.0000 0.0000 -0.0000 -0.0000 0.0000 -0.0000 -0.0000 0.0000 -0.0000 -0.0000 0.0000 -0.0000 -0.0000 0.0000 -0.0000 -0.0000 -0.0208 17.0479 -0.0919 -9.4893 6.0857 -10.5335 -0.0000 -0.0000 -0.0000 -0.2869 -16.3763 0.3303 13.8100 -28.8674 12.5583 -0.0000 0.0000 -0.0000
0.3985 86.9576 40.6604 1.8712 2.3193 1.3571 -1.0417 -3.4100 -0.6204 -1.0417 -3.4100 -0.6204 -1.0728 -3.5135 -0.6383 0.0000 -0.0000 -0.0000 0.0000 -0.0000 -0.0000 0.0000 -0.0000 -0.0000 0.0000 -0.0000 -0.0000 0.0000 -0.0000 -0.0000 0.0000 -0.0000 -0.0000 0.0000 -0.0000 -0.0000 0.0000 -0.0000 -0.0000 0.0000 -0.0000 -0.0000 0.0000 -0.0000 -0.0000 0.0600 8.7967 0.0956 -9.3040 6.9952 -3.8043 0.0000 -0.0000 -0.0000 -0.1851 -8.4287 0.3848 13.8151 -42.1300 12.5755 0.0000 -0.0000 -0.0000
0.3711 86.5529 41.2002 0.0213 2.3708 -0.2648 -0.0295 -3.4376 -0.0702 -0.0295 -3.4376 -0.0702 -0.0304 -3.5417 -0.0723 -0.0000 0.0000 -0.0000 -0.0000 0.0000 -0.0000 -0.0000 0.0000 -0.0000 -0.0000 0.0000 -0.0000 -0.0000 0.0000 -0.0000 -0.0000 0.0000 -0.0000 -0.0000 0.0000 -0.0000 -0.0000 0.0000 -0.0000 -0.0000 0.0000 -0.0000 -0.0000 0.0000 -0.0000 0.1085 0.3588 0.1674 -8.8906 7.8599 8.7638 0.0000 -0.0000 -0.0000 -0.1049 -0.1070 0.4135 13.5237 -50.9899 12.9131 0.0000 -0.0000 -0.0000
0.3462 85.9576 41.6858 -1.8299 2.3517 -1.8878 0.9827 -3.4205 0.4760 0.9827 -3.4205 0.4760 1.0121 -3.5243 0.4896 -0.0000 0.0000 -0.0000 -0.0000 0.0000 -0.0000 -0.0000 0.0000 -0.0000 -0.0000 0.0000 -0.0000 -0.0000 0.0000 -0.0000 -0.0000 0.0000 -0.0000 -0.0000 0.0000 -0.0000 -0.0000 0.0000 -0.0000 -0.0000 0.0000 -0.0000 -0.0000 0.0000 -0.0000 0.1563 -7.9446 0.2206 -8.1896 8.6211 11.3029 0.0000 -0.0000 -0.0000 -0.0177 8.2396 0.4922 12.8429 -54.9105 13.6330 -0.0000 0.0000 -0.0000
0.3225 85.2450 42.1515 -3.6126 2.2284 -3.4384 1.9563 -3.3582 0.9943 1.9563 -3.3582 0.9943 2.0147 -3.4605 1.0227 -0.0000 0.0000 0.0000 -0.0000 0.0000 0.0000 -0.0000 0.0000 0.0000 -0.0000 0.0000 0.0000 -0.0000 0.0000 0.0000 -0.0000 0.0000 0.0000 -0.0000 0.0000 0.0000 -0.0000 0.0000 0.0000 -0.0000 0.0000 0.0000 -0.0000 0.0000 0.0000 0.2346 -15.8385 0.2499 -7.1714 9.2065 12.9425 0.0000 -0.0000 -0.0000 0.0975 16.4111 0.6371 11.9266 -53.3717 14.4958 0.0000 -0.0000 -0.0000
0.2998 84.5053 42.6250 -5.2579 2.0333 -4.8646 2.8544 -3.2637 1.4670 2.8544 -3.2637 1.4670 2.9397 -3.3637 1.5090 0.0000 -0.0000 -0.0000 0.0000 -0.0000 -0.0000 0.0000 -0.0000 -0.0000 0.0000 -0.0000 -0.0000 0.0000 -0.0000 -0.0000 0.0000 -0.0000 -0.0000 0.0000 -0.0000 -0.0000 0.0000 -0.0000 -0.0000 0.0000 -0.0000 -0.0000 0.0000 -0.0000 -0.0000 0.3654 -20.3104 0.2458 -5.8975 9.5444 14.7463 -0.0000 0.0000 -0.0000 0.2489 24.1051 0.8798 11.1147 -46.4552 15.0338 0.0000 -0.0000 0.0000
0.2788 83.8409 43.1266 -6.7071 1.7984 -6.1277 3.6475 -3.1492 1.8802 3.6475 -3.1492 1.8802 3.7566 -3.2464 1.9341 0.0000 -0.0000 -0.0000 0.0000 -0.0000 -0.0000 0.0000 -0.0000 -0.0000 0.0000 -0.0000 -0.0000 0.0000 -0.0000 -0.0000 0.0000 -0.0000 -0.0000 0.0000 -0.0000 -0.0000 0.0000 -0.0000 -0.0000 0.0000 -0.0000 -0.0000 0.0000 -0.0000 -0.0000 0.5677 -20.9510 0.1984 -0.7556 9.6123 16.5150 -0.0000 0.0000 -0.0000 0.4367 31.0183 1.2384 10.5251 -35.2741 14.9652 0.0000 -0.0000 0.0000
0.2607 83.2295 43.6704 -7.9130 1.5588 -7.1869 4.3061 -3.0329 2.2205 4.3061 -3.0329 2.2205 4.4349 -3.1274 2.2843 0.0000 -0.0000 -0.0000 0.0000 -0.0000 -0.0000 0.0000 -0.0000 -0.0000 0.0000 -0.0000 -0.0000 0.0000 -0.0000 -0.0000 0.0000 -0.0000 -0.0000 0.0000 -0.0000 -0.0000 0.0000 -0.0000 -0.0000 0.0000 -0.0000 -0.0000 0.0000 -0.0000 -0.0000 0.8351 -21.4846 0.0969 5.4372 9.6456 17.5381 -0.0000 0.0000 -0.0000 0.6649 36.8721 1.6893 10.0490 -27.7511 14.7523 -0.0000 0.0000 0.0000
0.2472 82.4834 44.2637 -8.8321 1.3447 -7.9991 4.8075 -2.9308 2.4783 4.8075 -2.9308 2.4783 4.9514 -3.0228 2.5496 0.0000 -0.0000 -0.0000 0.0000 -0.0000 -0.0000 0.0000 -0.0000 -0.0000 0.0000 -0.0000 -0.0000 0.0000 -0.0000 -0.0000 0.0000 -0.0000 -0.0000 0.0000 -0.0000 -0.0000 0.0000 -0.0000 -0.0000 0.0000 -0.0000 -0.0000 0.0000 -0.0000 -0.0000 1.1257 -21.8936 -0.0484 5.8328 10.2387 17.2494 0.0000 -0.0000 -0.0000 0.8913 41.4157 2.1457 9.6232 -31.2220 15.3134 -0.0000 0.0000 -0.0000
0.2397 81.6731 44.9083 -9.4438 1.1941 -8.5458 5.1422 -2.8575 2.6463 5.1422 -2.8575 2.6463 5.2962 -2.9477 2.7225 -0.0000 0.0000 -0.0000 -0.0000 0.0000 -0.0000 -0.0000 0.0000 -0.0000 -0.0000 0.0000 -0.0000 -0.0000 0.0000 -0.0000 -0.0000 0.0000 -0.0000 -0.0000 0.0000 -0.0000 -0.0000 0.0000 -0.0000 -0.0000 0.0000 -0.0000 -0.0000 0.0000 -0.0000 1.3777 -22.1653 -0.1862 5.1643 11.1806 16.0035 0.0000 -0.0000 -0.0000 1.0779 44.4489 2.5260 9.2653 -35.1099 15.9073 0.0000 -0.0000 -0.0000
0.2397 80.9844 45.6005 -9.7256 1.1215 -8.8061 5.2953 -2.8216 2.7207 5.2953 -2.8216 2.7207 5.4538 -2.9110 2.7991 -0.0000 0.0000 -0.0000 -0.0000 0.0000 -0.0000 -0.0000 0.0000 -0.0000 -0.0000 0.0000 -0.0000 -0.0000 0.0000 -0.0000 -0.0000 0.0000 -0.0000 -0.0000 0.0000 -0.0000 -0.0000 0.0000 -0.0000 -0.0000 0.0000 -0.0000 -0.0000 0.0000 -0.0000 1.5120 -22.2902 -0.2564 -7.4534 11.8698 12.1370 0.0000 -0.0000 -0.0000 1.1714 45.8466 2.7243 9.0716 -36.9960 16.2286 -0.0000 -0.0000 -0.0000
0.2476 80.6245 46.3324 -9.6668 1.1402 -8.7693 5.2625 -2.8296 2.6979 5.2625 -2.8296 2.6979 5.4200 -2.9191 2.7756 0.0000 -0.0000 -0.0000 0.0000 -0.0000 -0.0000 0.0000 -0.0000 -0.0000 0.0000 -0.0000 -0.0000 0.0000 -0.0000 -0.0000 0.0000 -0.0000 -0.0000 0.0000 -0.0000 -0.0000 0.0000 -0.0000 -0.0000 0.0000 -0.0000 -0.0000 0.0000 -0.0000 -0.0000 1.4850 -22.2642 -0.2274 -12.0452 11.0645 -10.3411 0.0000 0.0000 -0.0000 1.1400 45.5507 2.6882 9.1179 -36.4300 16.1462 -0.0000 0.0000 -0.0000
0.2636 80.7185 47.0919 -9.2734 1.2494 -8.4400 5.0460 -2.8803 2.5822 5.0460 -2.8803 2.5822 5.1971 -2.9711 2.6565 -0.0000 0.0000 -0.0000 -0.0000 0.0000 -0.0000 -0.0000 0.0000 -0.0000 -0.0000 0.0000 -0.0000 -0.0000 0.0000 -0.0000 -0.0000 0.0000 -0.0000 -0.0000 0.0000 -0.0000 -0.0000 0.0000 -0.0000 -0.0000 0.0000 -0.0000 -0.0000 0.0000 -0.0000 1.3167 -22.0889 -0.1162 -13.6704 9.2757 -11.5232 0.0000 -0.0000 -0.0000 0.9979 43.5710 2.4474 9.3899 -33.2594 15.6629 0.0000 0.0000 -0.0000
0.2867 81.2375 47.8640 -8.5553 1.4313 -7.8253 4.6534 -2.9652 2.3709 4.6534 -2.9652 2.3709 4.7927 -3.0580 2.4390 0.0000 -0.0000 -0.0000 0.0000 -0.0000 -0.0000 0.0000 -0.0000 -0.0000 0.0000 -0.0000 -0.0000 0.0000 -0.0000 -0.0000 0.0000 -0.0000 -0.0000 0.0000 -0.0000 -0.0000 0.0000 -0.0000 -0.0000 0.0000 -0.0000 -0.0000 0.0000 -0.0000 -0.0000 1.0511 -21.7693 0.0386 -14.3028 7.2603 -11.4425 -0.0000 0.0000 -0.0000 0.7749 39.9963 2.0647 9.7896 -27.3269 14.8813 0.0000 -0.0000 0.0000
0.3153 82.0089 48.6315 -7.5348 1.6656 -6.9475 4.0949 -3.0747 2.0727 4.0949 -3.0747 2.0727 4.2174 -3.1702 2.1321 -0.0000 0.0000 0.0000 -0.0000 0.0000 0.0000 -0.0000 0.0000 0.0000 -0.0000 0.0000 0.0000 -0.0000 0.0000 0.0000 -0.0000 0.0000 0.0000 -0.0000 0.0000 0.0000 -0.0000 0.0000 0.0000 -0.0000 0.0000 0.0000 -0.0000 0.0000 0.0000 0.7803 -21.3161 0.1641 -14.7271 5.3219 -10.9417 -0.0000 0.0000 -0.0000 0.5248 34.9745 1.6418 10.1923 -18.7229 13.9390 0.0000 -0.0000 -0.0000
0.3474 82.7661 49.3757 -6.2440 1.9180 -5.8294 3.3898 -3.1925 1.6928 3.3898 -3.1925 1.6928 3.4911 -3.2908 1.7412 0.0000 0.0000 -0.0000 0.0000 0.0000 -0.0000 0.0000 0.0000 -0.0000 0.0000 0.0000 -0.0000 0.0000 0.0000 -0.0000 0.0000 0.0000 -0.0000 0.0000 0.0000 -0.0000 0.0000 0.0000 -0.0000 0.0000 0.0000 -0.0000 0.0000 0.0000 -0.0000 0.5443 -20.7441 0.2324 -15.1670 -8.7970 -10.2951 0.0000 -0.0000 -0.0000 0.2956 28.7218 1.2649 10.5035 -7.9294 12.9401 0.0000 -0.0000 -0.0000
0.3806 83.4157 50.0776 -4.7232 2.1487 -4.5123 2.5591 -3.3052 1.2428 2.5591 -3.3052 1.2428 2.6356 -3.4062 1.2782 -0.0000 -0.0000 -0.0000 -0.0000 -0.0000 -0.0000 -0.0000 -0.0000 -0.0000 -0.0000 -0.0000 -0.0000 -0.0000 -0.0000 -0.0000 -0.0000 -0.0000 -0.0000 -0.0000 -0.0000 -0.0000 -0.0000 -0.0000 -0.0000 -0.0000 -0.0000 -0.0000 -0.0000 -0.0000 -0.0000 0.3728 -20.0723 0.2475 -15.6998 -22.8474 -6.2551 -0.0000 0.0000 -0.0000 0.1136 21.5099 0.9913 10.6708 4.3076 11.9287 -0.0000 0.0000 -0.0000
0.4123 83.8073 50.7183 -3.0174 2.3420 -3.0429 1.6283 -3.4033 0.7386 1.6283 -3.4033 0.7386 1.6771 -3.5068 0.7595 0.0000 -0.0000 -0.0000 0.0000 -0.0000 -0.0000 0.0000 -0.0000 -0.0000 0.0000 -0.0000 -0.0000 0.0000 -0.0000 -0.0000 0.0000 -0.0000 -0.0000 0.0000 -0.0000 -0.0000 0.0000 -0.0000 -0.0000 0.0000 -0.0000 -0.0000 0.0000 -0.0000 -0.0000 0.2528 -13.2388 0.2350 -16.3334 -34.0393 -0.1468 -0.0000 0.0000 -0.0000 -0.0251 13.6129 0.8215 10.6595 6.2218 10.8968 -0.0000 0.0000 0.0000
0.4409 84.1112 51.2833 -1.2960 1.3102 -1.6177 0.7151 -1.8375 0.2495 0.7151 -1.8375 0.2495 0.7366 -1.8932 0.2567 -0.0000 0.0000 -0.0000 -0.0000 0.0000 -0.0000 -0.0000 0.0000 -0.0000 -0.0000 0.0000 -0.0000 -0.0000 0.0000 -0.0000 -0.0000 0.0000 -0.0000 -0.0000 0.0000 -0.0000 -0.0000 0.0000 -0.0000 -0.0000 0.0000 -0.0000 -0.0000 0.0000 -0.0000 0.1682 -6.1034 0.1388 -15.2988 -25.1959 -11.0553 -0.0000 0.0000 -0.0000 -0.1379 6.2915 0.7059 10.4068 7.5515 7.9619 0.0000 -0.0000 -0.0000
0.4665 84.3024 51.7829 -0.3562 1.0798 -0.7983 0.2070 -1.4461 -0.0607 0.2070 -1.4461 -0.0607 0.2133 -1.4900 -0.0626 0.0000 -0.0000 -0.0000 0.0000 -0.0000 -0.0000 0.0000 -0.0000 -0.0000 0.0000 -0.0000 -0.0000 0.0000 -0.0000 -0.0000 0.0000 -0.0000 -0.0000 0.0000 -0.0000 -0.0000 0.0000 -0.0000 -0.0000 0.0000 -0.0000 -0.0000 0.0000 -0.0000 -0.0000 0.1626 -1.7863 0.0692 -15.0491 -25.4749 -11.6043 -0.0000 0.0000 -0.0000 -0.1931 1.8797 0.6871 10.1175 8.2481 1.0974 -0.0000 0.0000 -0.0000
0.4893 84.3753 52.2260 0.3838 1.0241 -0.1248 -0.2014 -1.3498 -0.3135 -0.2014 -1.3498 -0.3135 -0.2074 -1.3907 -0.3230 -0.0000 0.0000 -0.0000 -0.0000 0.0000 -0.0000 -0.0000 0.0000 -0.0000 -0.0000 0.0000 -0.0000 -0.0000 0.0000 -0.0000 -0.0000 0.0000 -0.0000 -0.0000 0.0000 -0.0000 -0.0000 0.0000 -0.0000 -0.0000 0.0000 -0.0000 -0.0000 0.0000 -0.0000 0.1673 1.8557 0.0118 -14.8963 -27.7999 -11.8921 -0.0000 0.0000 -0.0000 -0.2110 -1.7838 0.6728 9.8039 8.7729 -4.9957 -0.0000 0.0000 -0.0000
0.5097 84.3394 52.6201 1.0753 0.9904 0.5102 -0.5846 -1.3168 -0.5489 -0.5846 -1.3168 -0.5489 -0.6021 -1.3568 -0.5653 0.0000 -0.0000 -0.0000 0.0000 -0.0000 -0.0000 0.0000 -0.0000 -0.0000 0.0000 -0.0000 -0.0000 0.0000 -0.0000 -0.0000 0.0000 -0.0000 -0.0000 0.0000 -0.0000 -0.0000 0.0000 -0.0000 -0.0000 0.0000 -0.0000 -0.0000 0.0000 -0.0000 -0.0000 0.1618 5.3254 -0.0541 -14.7090 -29.9474 -12.1736 0.0000 -0.0000 -0.0000 -0.2297 -5.2210 0.6445 9.4272 9.2331 -10.1347 -0.0000 0.0000 -0.0000
0.5283 84.2123 52.9834 1.7394 0.9865 1.1116 -0.9534 -1.3124 -0.7715 -0.9534 -1.3124 -0.7715 -0.9821 -1.3524 -0.7945 0.0000 -0.0000 -0.0000 0.0000 -0.0000 -0.0000 0.0000 -0.0000 -0.0000 0.0000 -0.0000 -0.0000 0.0000 -0.0000 -0.0000 0.0000 -0.0000 -0.0000 0.0000 -0.0000 -0.0000 0.0000 -0.0000 -0.0000 0.0000 -0.0000 -0.0000 0.0000 -0.0000 -0.0000 0.1559 8.6669 -0.0910 -14.4516 -31.2297 -12.5060 -0.0000 0.0000 0.0000 -0.2479 -8.5639 0.6378 8.9623 9.6447 -10.8357 -0.0000 0.0000 -0.0000
0.5455 84.0164 53.3313 2.3780 0.9808 1.6896 -1.3103 -1.3007 -0.9883 -1.3103 -1.3007 -0.9883 -1.3497 -1.3404 -1.0178 0.0000 -0.0000 -0.0000 0.0000 -0.0000 -0.0000 0.0000 -0.0000 -0.0000 0.0000 -0.0000 -0.0000 0.0000 -0.0000 -0.0000 0.0000 -0.0000 -0.0000 0.0000 -0.0000 -0.0000 0.0000 -0.0000 -0.0000 0.0000 -0.0000 -0.0000 0.0000 -0.0000 -0.0000 0.1480 11.9036 -0.1320 -14.1194 -31.3201 -12.8831 0.0000 -0.0000 -0.0000 -0.2716 -11.7888 0.6172 8.3967 10.0032 -11.6149 0.0000 -0.0000 -0.0000
0.5614 83.7780 53.6763 2.9852 0.9117 2.2192 -1.6511 -1.2760 -1.2011 -1.6511 -1.2760 -1.2011 -1.7008 -1.3152 -1.2369 -0.0000 0.0000 -0.0000 -0.0000 0.0000 -0.0000 -0.0000 0.0000 -0.0000 -0.0000 0.0000 -0.0000 -0.0000 0.0000 -0.0000 -0.0000 0.0000 -0.0000 -0.0000 0.0000 -0.0000 -0.0000 0.0000 -0.0000 -0.0000 0.0000 -0.0000 -0.0000 0.0000 -0.0000 0.1325 15.0568 -0.1511 -13.7281 -30.0021 -13.2734 0.0000 -0.0000 -0.0000 -0.2977 -14.8083 0.6246 7.7305 10.2985 -12.4757 -0.0000 0.0000 -0.0000
0.5761 83.5274 54.0283 3.5546 0.8645 2.6867 -1.9691 -1.2550 -1.3784 -1.9691 -1.2550 -1.3784 -2.0283 -1.2938 -1.4195 0.0000 -0.0000 -0.0000 0.0000 -0.0000 -0.0000 0.0000 -0.0000 -0.0000 0.0000 -0.0000 -0.0000 0.0000 -0.0000 -0.0000 0.0000 -0.0000 -0.0000 0.0000 -0.0000 -0.0000 0.0000 -0.0000 -0.0000 0.0000 -0.0000 -0.0000 0.0000 -0.0000 -0.0000 0.1144 18.0045 -0.1450 -13.3034 -27.1295 -13.6289 -0.0000 -0.0000 0.0000 -0.3326 -17.6617 0.6629 6.9824 10.5216 -13.3988 0.0000 -0.0000 -0.0000
0.5891 83.2961 54.3951 4.0843 0.8195 3.1650 -2.2643 -1.2261 -1.5636 -2.2643 -1.2261 -1.5636 -2.3324 -1.2642 -1.6102 -0.0000 0.0000 -0.0000 -0.0000 0.0000 -0.0000 -0.0000 0.0000 -0.0000 -0.0000 0.0000 -0.0000 -0.0000 0.0000 -0.0000 -0.0000 0.0000 -0.0000 -0.0000 0.0000 -0.0000 -0.0000 0.0000 -0.0000 -0.0000 0.0000 -0.0000 -0.0000 0.0000 -0.0000 0.0935 20.7342 -0.2024 -12.8715 -22.6561 -13.8971 -0.0000 0.0000 0.0000 -0.3849 -20.0300 0.6590 6.1902 10.6702 -14.3467 -0.0000 0.0000 -0.0000
0.6002 83.1161 54.7824 4.5575 0.7612 3.6090 -2.5285 -1.1929 -1.7291 -2.5285 -1.1929 -1.7291 -2.6046 -1.2302 -1.7806 0.0000 -0.0000 -0.0000 0.0000 -0.0000 -0.0000 0.0000 -0.0000 -0.0000 0.0000 -0.0000 -0.0000 0.0000 -0.0000 -0.0000 0.0000 -0.0000 -0.0000 0.0000 -0.0000 -0.0000 0.0000 -0.0000 -0.0000 0.0000 -0.0000 -0.0000 0.0000 -0.0000 -0.0000 0.0763 23.2173 -0.2629 -12.4486 -16.6410 -14.0320 0.0000 -0.0000 0.0000 -0.4311 -20.2668 0.6325 5.4072 10.7477 -15.2649 -0.0000 0.0000 -0.0000
0.6090 82.9513 55.1942 4.9742 0.7192 3.9522 -2.7597 -1.1699 -1.8539 -2.7597 -1.1699 -1.8539 -2.8427 -1.2067 -1.9092 0.0000 -0.0000 -0.0000 0.0000 -0.0000 -0.0000 0.0000 -0.0000 -0.0000 0.0000 -0.0000 -0.0000 0.0000 -0.0000 -0.0000 0.0000 -0.0000 -0.0000 0.0000 -0.0000 -0.0000 0.0000 -0.0000 -0.0000 0.0000 -0.0000 -0.0000 0.0000 -0.0000 -0.0000 0.0507 25.4027 -0.2851 -12.1536 -13.7024 -14.1070 -0.0000 0.0000 -0.0000 -0.4838 -20.4771 0.6646 4.9968 10.8452 -15.6556 0.0000 -0.0000 -0.0000
0.6149 82.7321 55.6327 5.3278 0.6772 4.2777 -2.9581 -1.1541 -1.9691 -2.9581 -1.1541 -1.9691 -3.0471 -1.1907 -2.0279 -0.0000 0.0000 -0.0000 -0.0000 0.0000 -0.0000 -0.0000 0.0000 -0.0000 -0.0000 0.0000 -0.0000 -0.0000 0.0000 -0.0000 -0.0000 0.0000 -0.0000 -0.0000 0.0000 -0.0000 -0.0000 0.0000 -0.0000 -0.0000 0.0000 -0.0000 -0.0000 0.0000 -0.0000 0.0247 27.2817 -0.3443 -12.0359 -16.3237 -14.2628 -0.0000 0.0000 -0.0000 -0.5365 -20.6564 0.6621 5.2441 11.0581 -15.2065 0.0000 -0.0000 -0.0000
0.6176 82.4714 56.0988 5.6157 0.6136 4.5517 -3.1191 -1.1275 -2.0622 -3.1191 -1.1275 -2.0622 -3.2129 -1.1634 -2.1238 -0.0000 0.0000 -0.0000 -0.0000 0.0000 -0.0000 -0.0000 0.0000 -0.0000 -0.0000 0.0000 -0.0000 -0.0000 0.0000 -0.0000 -0.0000 0.0000 -0.0000 -0.0000 0.0000 -0.0000 -0.0000 0.0000 -0.0000 -0.0000 0.0000 -0.0000 -0.0000 0.0000 -0.0000 0.0059 28.8433 -0.4007 -11.9626 -19.6467 -14.4229 -0.0000 0.0000 -0.0000 -0.5789 -20.7992 0.6665 5.9449 11.2832 -14.2895 -0.0000 0.0000 -0.0000
0.6167 82.2053 56.5921 5.8377 0.5911 4.7244 -3.2420 -1.1243 -2.1201 -3.2420 -1.1243 -2.1201 -3.3396 -1.1602 -2.1834 -0.0000 0.0000 -0.0000 -0.0000 0.0000 -0.0000 -0.0000 0.0000 -0.0000 -0.0000 0.0000 -0.0000 -0.0000 0.0000 -0.0000 -0.0000 0.0000 -0.0000 -0.0000 0.0000 -0.0000 -0.0000 0.0000 -0.0000 -0.0000 0.0000 -0.0000 -0.0000 0.0000 -0.0000 -0.0163 29.9954 -0.4002 -11.9072 -22.4099 -14.5570 -0.0000 0.0000 -0.0000 -0.6211 -20.9093 0.6805 7.1103 11.4376 -12.9402 -0.0000 0.0000 -0.0000
0.6119 81.9748 57.1107 5.9830 0.5891 4.8647 -3.3235 -1.1152 -2.1646 -3.3235 -1.1152 -2.1646 -3.4236 -1.1510 -2.2291 -0.0000 0.0000 -0.0000 -0.0000 0.0000 -0.0000 -0.0000 0.0000 -0.0000 -0.0000 0.0000 -0.0000 -0.0000 0.0000 -0.0000 -0.0000 0.0000 -0.0000 -0.0000 0.0000 -0.0000 -0.0000 0.0000 -0.0000 -0.0000 0.0000 -0.0000 -0.0000 0.0000 -0.0000 -0.0344 30.7355 -0.4151 -11.8688 -24.2908 -14.6511 0.0000 -0.0000 -0.0000 -0.6465 -20.9808 0.6636 8.6290 11.4291 -11.2870 -0.0000 0.0000 -0.0000
0.6031 81.8175 57.6519 6.0477 0.5669 4.9556 -3.3609 -1.1085 -2.1865 -3.3609 -1.1085 -2.1865 -3.4621 -1.1441 -2.2517 0.0000 -0.0000 -0.0000 0.0000 -0.0000 -0.0000 0.0000 -0.0000 -0.0000 0.0000 -0.0000 -0.0000 0.0000 -0.0000 -0.0000 0.0000 -0.0000 -0.0000 0.0000 -0.0000 -0.0000 0.0000 -0.0000 -0.0000 0.0000 -0.0000 -0.0000 0.0000 -0.0000 -0.0000 -0.0381 31.0974 -0.4505 -11.8514 -25.2172 -14.6958 -0.0000 0.0000 -0.0000 -0.6522 -21.0117 0.6450 10.1542 11.2041 -6.8027 -0.0000 0.0000 -0.0000
0.5904 81.7640 58.2122 6.0460 0.5616 4.9313 -3.3585 -1.0983 -2.1781 -3.3585 -1.0983 -2.1781 -3.4596 -1.1335 -2.2431 -0.0000 0.0000 -0.0000 -0.0000 0.0000 -0.0000 -0.0000 0.0000 -0.0000 -0.0000 0.0000 -0.0000 -0.0000 0.0000 -0.0000 -0.0000 0.0000 -0.0000 -0.0000 0.0000 -0.0000 -0.0000 0.0000 -0.0000 -0.0000 0.0000 -0.0000 -0.0000 0.0000 -0.0000 -0.0443 31.0508 -0.4311 -11.8561 -25.1720 -14.6900 0.0000 -0.0000 -0.0000 -0.6500 -21.0054 0.6795 11.3817 10.7745 5.7801 0.0000 -0.0000 -0.0000
0.5739 81.8350 58.7872 5.9695 0.6012 4.8517 -3.3141 -1.1155 -2.1412 -3.3141 -1.1155 -2.1412 -3.4139 -1.1513 -2.2051 -0.0000 0.0000 -0.0000 -0.0000 0.0000 -0.0000 -0.0000 0.0000 -0.0000 -0.0000 0.0000 -0.0000 -0.0000 0.0000 -0.0000 -0.0000 0.0000 -0.0000 -0.0000 0.0000 -0.0000 -0.0000 0.0000 -0.0000 -0.0000 0.0000 -0.0000 -0.0000 0.0000 -0.0000 -0.0447 30.5730 -0.4034 -11.8816 -24.1438 -14.6360 -0.0000 -0.0000 -0.0000 -0.6360 -20.9656 0.6777 12.2567 10.1918 10.4383 -0.0000 -0.0000 -0.0000
0.5538 82.0395 59.3720 5.8174 0.6644 4.7234 -3.2279 -1.1351 -2.0822 -3.2279 -1.1351 -2.0822 -3.3251 -1.1714 -2.1443 -0.0000 0.0000 -0.0000 -0.0000 0.0000 -0.0000 -0.0000 0.0000 -0.0000 -0.0000 0.0000 -0.0000 -0.0000 0.0000 -0.0000 -0.0000 0.0000 -0.0000 -0.0000 0.0000 -0.0000 -0.0000 0.0000 -0.0000 -0.0000 0.0000 -0.0000 -0.0000 0.0000 -0.0000 -0.0376 29.6915 -0.3678 -11.9250 -22.1387 -14.5364 -0.0000 0.0000 -0.0000 -0.6121 -20.8904 0.6458 12.8554 9.5077 10.9808 -0.0000 0.0000 0.0000
0.5307 82.3738 59.9613 5.5884 0.6845 4.5293 -3.1016 -1.1496 -2.0125 -3.1016 -1.1496 -2.0125 -3.1949 -1.1862 -2.0725 0.0000 -0.0000 -0.0000 0.0000 -0.0000 -0.0000 0.0000 -0.0000 -0.0000 0.0000 -0.0000 -0.0000 0.0000 -0.0000 -0.0000 0.0000 -0.0000 -0.0000 0.0000 -0.0000 -0.0000 0.0000 -0.0000 -0.0000 0.0000 -0.0000 -0.0000 0.0000 -0.0000 -0.0000 -0.0131 28.4896 -0.3273 -11.9808 -19.1798 -14.3947 0.0000 -0.0000 -0.0000 -0.5648 -20.7742 0.6154 13.2686 8.7609 11.3016 0.0000 -0.0000 -0.0000
0.5051 82.8216 60.5494 5.2884 0.6995 4.2701 -2.9348 -1.1609 -1.9037 -2.9348 -1.1609 -1.9037 -3.0231 -1.1976 -1.9605 -0.0000 0.0000 -0.0000 -0.0000 0.0000 -0.0000 -0.0000 0.0000 -0.0000 -0.0000 0.0000 -0.0000 -0.0000 0.0000 -0.0000 -0.0000 0.0000 -0.0000 -0.0000 0.0000 -0.0000 -0.0000 0.0000 -0.0000 -0.0000 0.0000 -0.0000 -0.0000 0.0000 -0.0000 0.0202 26.9370 -0.2653 -12.0426 -15.2879 -14.2193 -0.0000 0.0000 -0.0000 -0.5113 -20.6225 0.5845 13.5647 7.9831 11.4773 -0.0000 0.0000 -0.0000
0.4776 83.3546 61.1304 4.9274 0.7729 3.9460 -2.7326 -1.1843 -1.7694 -2.7326 -1.1843 -1.7694 -2.8148 -1.2215 -1.8222 -0.0000 0.0000 -0.0000 -0.0000 0.0000 -0.0000 -0.0000 0.0000 -0.0000 -0.0000 0.0000 -0.0000 -0.0000 0.0000 -0.0000 -0.0000 0.0000 -0.0000 -0.0000 0.0000 -0.0000 -0.0000 0.0000 -0.0000 -0.0000 0.0000 -0.0000 -0.0000 0.0000 -0.0000 0.0417 24.9927 -0.2089 -12.1044 -10.5267 -14.0148 -0.0000 0.0000 -0.0000 -0.4646 -20.4427 0.5755 13.7852 7.1970 11.5570 -0.0000 0.0000 0.0000
0.4489 83.9356 61.6982 4.5059 0.8161 3.5565 -2.4972 -1.2048 -1.6082 -2.4972 -1.2048 -1.6082 -2.5723 -1.2424 -1.6561 0.0000 -0.0000 -0.0000 0.0000 -0.0000 -0.0000 0.0000 -0.0000 -0.0000 0.0000 -0.0000 -0.0000 0.0000 -0.0000 -0.0000 0.0000 -0.0000 -0.0000 0.0000 -0.0000 -0.0000 0.0000 -0.0000 -0.0000 0.0000 -0.0000 -0.0000 0.0000 -0.0000 -0.0000 0.0686 22.7695 -0.1424 -12.1598 -4.9669 -13.7884 -0.0000 -0.0000 0.0000 -0.4182 -20.2289 0.5804 13.9584 6.4221 11.5787 -0.0000 0.0000 -0.0000
0.4198 84.5219 62.2468 4.0264 0.8829 3.1638 -2.2294 -1.2262 -1.4580 -2.2294 -1.2262 -1.4580 -2.2965 -1.2642 -1.5014 0.0000 -0.0000 -0.0000 0.0000 -0.0000 -0.0000 0.0000 -0.0000 -0.0000 0.0000 -0.0000 -0.0000 0.0000 -0.0000 -0.0000 0.0000 -0.0000 -0.0000 0.0000 -0.0000 -0.0000 0.0000 -0.0000 -0.0000 0.0000 -0.0000 -0.0000 0.0000 -0.0000 -0.0000 0.0929 20.2369 -0.1249 -12.2031 1.3161 -13.5445 -0.0000 0.0000 0.0000 -0.3738 -19.9025 0.5357 14.0992 5.6760 11.5685 -0.0000 -0.0000 -0.0000
0.3870 84.7434 62.8342 1.2910 3.8334 1.3487 -0.6670 -5.1849 -0.8782 -0.6670 -5.1849 -0.8782 -0.6860 -5.3422 -0.9040 -0.0000 0.0000 -0.0000 -0.0000 0.0000 -0.0000 -0.0000 0.0000 -0.0000 -0.0000 0.0000 -0.0000 -0.0000 0.0000 -0.0000 -0.0000 0.0000 -0.0000 -0.0000 0.0000 -0.0000 -0.0000 0.0000 -0.0000 -0.0000 0.0000 -0.0000 -0.0000 0.0000 -0.0000 3.0840 36.6273 0.6235 -11.7052 -46.0604 -14.0963 -0.0000 -0.0000 -0.0000 -1.6349 -21.6918 3.7916 15.6769 -3.6686 7.7379 0.0000 -0.0000 -0.0000
0.3512 84.7576 63.4640 0.6202 4.5609 0.8716 -0.2661 -6.1652 -0.7431 -0.2661 -6.1652 -0.7431 -0.2730 -6.3521 -0.7652 -0.0000 0.0000 -0.0000 -0.0000 0.0000 -0.0000 -0.0000 0.0000 -0.0000 -0.0000 0.0000 -0.0000 -0.0000 0.0000 -0.0000 -0.0000 0.0000 -0.0000 -0.0000 0.0000 -0.0000 -0.0000 0.0000 -0.0000 -0.0000 0.0000 -0.0000 -0.0000 0.0000 -0.0000 3.7986 39.4078 1.0008 -11.3816 -54.5422 -14.5087 -0.0000 0.0000 0.0000 -2.0410 -21.9815 4.5377 16.0799 -8.8103 0.5923 0.0000 -0.0000 -0.0000
0.3135 84.7347 64.1276 0.4532 4.7464 0.6856 -0.1662 -6.4029 -0.6852 -0.1662 -6.4029 -0.6852 -0.1700 -6.5969 -0.7058 0.0000 -0.0000 -0.0000 0.0000 -0.0000 -0.0000 0.0000 -0.0000 -0.0000 0.0000 -0.0000 -0.0000 0.0000 -0.0000 -0.0000 0.0000 -0.0000 -0.0000 0.0000 -0.0000 -0.0000 0.0000 -0.0000 -0.0000 0.0000 -0.0000 -0.0000 0.0000 -0.0000 -0.0000 3.9039 38.7180 1.0358 -11.4424 -53.6808 -14.4344 -0.0000 0.0000 -0.0000 -2.0969 -21.9170 4.6685 16.2105 -12.3215 -2.5707 0.0000 -0.0000 -0.0000
0.2752 84.7227 64.8149 0.4114 4.8112 0.6254 -0.1442 -6.4712 -0.6570 -0.1442 -6.4712 -0.6570 -0.1474 -6.6674 -0.6767 -0.0000 0.0000 -0.0000 -0.0000 0.0000 -0.0000 -0.0000 0.0000 -0.0000 -0.0000 0.0000 -0.0000 -0.0000 0.0000 -0.0000 -0.0000 0.0000 -0.0000 -0.0000 0.0000 -0.0000 -0.0000 0.0000 -0.0000 -0.0000 0.0000 -0.0000 -0.0000 0.0000 -0.0000 3.8517 37.1251 0.9263 -11.6052 -50.3803 -14.2266 -0.0000 0.0000 -0.0000 -2.0706 -21.7623 4.5958 16.2788 -15.4619 -4.6295 -0.0000 0.0000 -0.0000
0.2372 84.7342 65.5163 0.4016 4.8302 0.5416 -0.1401 -6.4829 -0.6205 -0.1401 -6.4829 -0.6205 -0.1432 -6.6794 -0.6392 -0.0000 0.0000 -0.0000 -0.0000 0.0000 -0.0000 -0.0000 0.0000 -0.0000 -0.0000 0.0000 -0.0000 -0.0000 0.0000 -0.0000 -0.0000 0.0000 -0.0000 -0.0000 0.0000 -0.0000 -0.0000 0.0000 -0.0000 -0.0000 0.0000 -0.0000 -0.0000 0.0000 -0.0000 3.7683 35.2864 0.8226 -11.7661 -46.3388 -14.0102 0.0000 -0.0000 0.0000 -2.0154 -21.5811 4.5188 16.3367 -18.4678 -6.3683 -0.0000 0.0000 -0.0000
0.2001 84.7722 66.2234 0.3979 4.8303 0.5073 -0.1378 -6.4806 -0.5941 -0.1378 -6.4806 -0.5941 -0.1409 -6.6770 -0.6119 0.0000 -0.0000 -0.0000 0.0000 -0.0000 -0.0000 0.0000 -0.0000 -0.0000 0.0000 -0.0000 -0.0000 0.0000 -0.0000 -0.0000 0.0000 -0.0000 -0.0000 0.0000 -0.0000 -0.0000 0.0000 -0.0000 -0.0000 0.0000 -0.0000 -0.0000 0.0000 -0.0000 -0.0000 3.6905 33.3768 0.6879 -11.9025 -41.9786 -13.8142 -0.0000 0.0000 -0.0000 -1.9619 -21.3891 4.3952 16.3988 -21.4086 -8.0198 -0.0000 0.0000 -0.0000
0.1644 84.8371 66.9289 0.3984 4.8066 0.4448 -0.1340 -6.4783 -0.5596 -0.1340 -6.4783 -0.5596 -0.1371 -6.6746 -0.5764 -0.0000 0.0000 -0.0000 -0.0000 0.0000 -0.0000 -0.0000 0.0000 -0.0000 -0.0000 0.0000 -0.0000 -0.0000 0.0000 -0.0000 -0.0000 0.0000 -0.0000 -0.0000 0.0000 -0.0000 -0.0000 0.0000 -0.0000 -0.0000 0.0000 -0.0000 -0.0000 0.0000 -0.0000 3.6127 31.4409 0.5800 -12.0163 -37.4261 -13.6374 -0.0000 0.0000 -0.0000 -1.9080 -21.1911 4.2937 16.4679 -24.2775 -9.6229 0.0000 -0.0000 -0.0000
0.1306 84.9283 67.6265 0.4012 4.8078 0.4080 -0.1325 -6.4853 -0.5319 -0.1325 -6.4853 -0.5319 -0.1356 -6.6819 -0.5479 -0.0000 0.0000 -0.0000 -0.0000 0.0000 -0.0000 -0.0000 0.0000 -0.0000 -0.0000 0.0000 -0.0000 -0.0000 0.0000 -0.0000 -0.0000 0.0000 -0.0000 -0.0000 0.0000 -0.0000 -0.0000 0.0000 -0.0000 -0.0000 0.0000 -0.0000 -0.0000 0.0000 -0.0000 3.5367 29.4445 0.4409 -12.1105 -32.7208 -13.4758 -0.0000 -0.0000 -0.0000 -1.8575 -20.9918 4.1685 16.5457 -27.0922 -10.1207 0.0000 -0.0000 -0.0000
0.0988 85.0445 68.3107 0.4013 4.8385 0.3547 -0.1300 -6.5055 -0.5038 -0.1300 -6.5055 -0.5038 -0.1331 -6.7027 -0.5190 0.0000 -0.0000 -0.0000 0.0000 -0.0000 -0.0000 0.0000 -0.0000 -0.0000 0.0000 -0.0000 -0.0000 0.0000 -0.0000 -0.0000 0.0000 -0.0000 -0.0000 0.0000 -0.0000 -0.0000 0.0000 -0.0000 -0.0000 0.0000 -0.0000 -0.0000 0.0000 -0.0000 -0.0000 3.4708 27.3874 0.3276 -12.1873 -27.8720 -13.3277 0.0000 0.0000 -0.0000 -1.8190 -20.7922 4.0682 16.6339 -29.8504 -10.2795 0.0000 -0.0000 -0.0000
0.0692 85.1839 68.9767 0.3968 4.8310 0.3228 -0.1274 -6.5148 -0.4823 -0.1274 -6.5148 -0.4823 -0.1305 -6.7123 -0.4968 -0.0000 0.0000 -0.0000 -0.0000 0.0000 -0.0000 -0.0000 0.0000 -0.0000 -0.0000 0.0000 -0.0000 -0.0000 0.0000 -0.0000 -0.0000 0.0000 -0.0000 -0.0000 0.0000 -0.0000 -0.0000 0.0000 -0.0000 -0.0000 0.0000 -0.0000 -0.0000 0.0000 -0.0000 3.4174 25.3464 0.1998 -12.2492 -22.9041 -13.1896 -0.0000 0.0000 0.0000 -1.7669 -20.5860 3.9444 16.7315 -32.5530 -10.4383 0.0000 -0.0000 -0.0000
0.0418 85.3446 69.6204 0.3928 4.8110 0.2909 -0.1247 -6.5064 -0.4577 -0.1247 -6.5064 -0.4577 -0.1277 -6.7036 -0.4714 -0.0000 0.0000 -0.0000 -0.0000 0.0000 -0.0000 -0.0000 0.0000 -0.0000 -0.0000 0.0000 -0.0000 -0.0000 0.0000 -0.0000 -0.0000 0.0000 -0.0000 -0.0000 0.0000 -0.0000 -0.0000 0.0000 -0.0000 -0.0000 0.0000 -0.0000 -0.0000 0.0000 -0.0000 3.3671 23.2907 0.0783 -12.2984 -17.8226 -13.0590 0.0000 0.0000 -0.0000 -1.7231 -20.3765 3.8213 16.8395 -35.1892 -10.5984 0.0000 -0.0000 -0.0000
0.0166 85.5242 70.2384 0.3955 4.7793 0.2589 -0.1241 -6.4873 -0.4341 -0.1241 -6.4873 -0.4341 -0.1271 -6.6839 -0.4471 -0.0000 0.0000 -0.0000 -0.0000 0.0000 -0.0000 -0.0000 0.0000 -0.0000 -0.0000 0.0000 -0.0000 -0.0000 0.0000 -0.0000 -0.0000 0.0000 -0.0000 -0.0000 0.0000 -0.0000 -0.0000 0.0000 -0.0000 -0.0000 0.0000 -0.0000 -0.0000 0.0000 -0.0000 3.3157 21.2257 -0.0525 -12.3356 -12.6431 -12.9331 -0.0000 -0.0000 -0.0000 -1.6902 -20.1629 3.6988 16.9594 -37.7671 -10.7608 -0.0000 0.0000 -0.0000
-0.0063 85.7199 70.8273 0.3928 4.7993 0.1961 -0.1206 -6.4816 -0.4065 -0.1206 -6.4816 -0.4065 -0.1235 -6.6780 -0.4187 -0.0000 0.0000 -0.0000 -0.0000 0.0000 -0.0000 -0.0000 0.0000 -0.0000 -0.0000 0.0000 -0.0000 -0.0000 0.0000 -0.0000 -0.0000 0.0000 -0.0000 -0.0000 0.0000 -0.0000 -0.0000 0.0000 -0.0000 -0.0000 0.0000 -0.0000 -0.0000 0.0000 -0.0000 3.2768 19.0938 -0.1351 -12.3614 -7.3916 -12.8125 0.0000 -0.0000 0.0000 -1.6569 -19.5216 3.6083 17.0907 -40.2832 -10.9270 0.0000 -0.0000 -0.0000
-0.0271 85.9288 71.3846 0.3902 4.7749 0.1490 -0.1177 -6.4787 -0.3840 -0.1177 -6.4787 -0.3840 -0.1206 -6.6751 -0.3955 -0.0000 0.0000 -0.0000 -0.0000 0.0000 -0.0000 -0.0000 0.0000 -0.0000 -0.0000 0.0000 -0.0000 -0.0000 0.0000 -0.0000 -0.0000 0.0000 -0.0000 -0.0000 0.0000 -0.0000 -0.0000 0.0000 -0.0000 -0.0000 0.0000 -0.0000 -0.0000 0.0000 -0.0000 3.2423 16.9867 -0.2324 -12.3768 -2.0717 -12.6939 -0.0000 0.0000 -0.0000 -1.6235 -17.3554 3.4992 17.2353 -42.7285 -11.0982 -0.0000 0.0000 -0.0000
-0.0458 86.1209 71.9078 0.3897 4.7641 0.1189 -0.1163 -6.4770 -0.3588 -0.1163 -6.4770 -0.3588 -0.1192 -6.6733 -0.3695 -0.0000 0.0000 -0.0000 -0.0000 0.0000 -0.0000 -0.0000 0.0000 -0.0000 -0.0000 0.0000 -0.0000 -0.0000 0.0000 -0.0000 -0.0000 0.0000 -0.0000 -0.0000 0.0000 -0.0000 -0.0000 0.0000 -0.0000 -0.0000 0.0000 -0.0000 -0.0000 0.0000 -0.0000 3.2099 14.8374 -0.3668 -12.3833 3.3008 -12.5736 -0.0000 -0.0000 -0.0000 -1.5944 -15.1835 3.3741 17.3920 -45.1032 -11.2733 -0.0000 0.0000 -0.0000
-0.0625 86.2101 72.3950 0.3889 4.7767 0.0883 -0.1150 -6.4821 -0.3308 -0.1150 -6.4821 -0.3308 -0.1179 -6.6785 -0.3407 -0.0000 0.0000 -0.0000 -0.0000 0.0000 -0.0000 -0.0000 0.0000 -0.0000 -0.0000 0.0000 -0.0000 -0.0000 0.0000 -0.0000 -0.0000 0.0000 -0.0000 -0.0000 0.0000 -0.0000 -0.0000 0.0000 -0.0000 -0.0000 0.0000 -0.0000 -0.0000 0.0000 -0.0000 3.1841 12.6611 -0.4909 -12.3790 5.3694 -12.4527 0.0000 -0.0000 0.0000 -1.5700 -13.0316 3.2459 17.5623 -47.3985 -11.4546 -0.0000 0.0000 -0.0000
-0.0774 86.1945 72.8444 0.3896 4.7641 0.0598 -0.1150 -6.4747 -0.3204 -0.1150 -6.4747 -0.3204 -0.1179 -6.6709 -0.3299 -0.0000 0.0000 -0.0000 -0.0000 0.0000 -0.0000 -0.0000 0.0000 -0.0000 -0.0000 0.0000 -0.0000 -0.0000 0.0000 -0.0000 -0.0000 0.0000 -0.0000 -0.0000 0.0000 -0.0000 -0.0000 0.0000 -0.0000 -0.0000 0.0000 -0.0000 -0.0000 0.0000 -0.0000 3.1649 10.4867 -0.6195 -12.3652 5.9096 -12.3292 0.0000 -0.0000 -0.0000 -1.5437 -10.8314 3.1210 17.7471 -49.6307 -11.6437 0.0000 -0.0000 -0.0000
-0.0905 86.0735 73.2542 0.3910 4.7323 -0.0036 -0.1140 -6.4546 -0.2923 -0.1140 -6.4546 -0.2923 -0.1169 -6.6502 -0.3010 -0.0000 0.0000 -0.0000 -0.0000 0.0000 -0.0000 -0.0000 0.0000 -0.0000 -0.0000 0.0000 -0.0000 -0.0000 0.0000 -0.0000 -0.0000 0.0000 -0.0000 -0.0000 0.0000 -0.0000 -0.0000 0.0000 -0.0000 -0.0000 0.0000 -0.0000 -0.0000 0.0000 -0.0000 3.1489 8.3155 -0.7232 -12.3407 6.4491 -12.2010 -0.0000 0.0000 -0.0000 -1.5237 -8.6061 3.0296 17.9475 -51.7796 -11.8412 0.0000 -0.0000 -0.0000
-0.1020 85.8476 73.6233 0.3932 4.7067 -0.0448 -0.1134 -6.4401 -0.2631 -0.1134 -6.4401 -0.2631 -0.1163 -6.6353 -0.2710 -0.0000 0.0000 -0.0000 -0.0000 0.0000 -0.0000 -0.0000 0.0000 -0.0000 -0.0000 0.0000 -0.0000 -0.0000 0.0000 -0.0000 -0.0000 0.0000 -0.0000 -0.0000 0.0000 -0.0000 -0.0000 0.0000 -0.0000 -0.0000 0.0000 -0.0000 -0.0000 0.0000 -0.0000 3.1306 6.1384 -0.8412 -12.3021 6.9861 -12.0660 -0.0000 0.0000 0.0000 -1.5114 -6.3703 2.9202 18.1651 -53.8589 -12.0498 -0.0000 0.0000 -0.0000
-0.1120 85.5186 73.9567 0.3911 4.6727 -0.1075 -0.1108 -6.4359 -0.2315 -0.1108 -6.4359 -0.2315 -0.1138 -6.6310 -0.2383 -0.0000 0.0000 -0.0000 -0.0000 0.0000 -0.0000 -0.0000 0.0000 -0.0000 -0.0000 0.0000 -0.0000 -0.0000 0.0000 -0.0000 -0.0000 0.0000 -0.0000 -0.0000 0.0000 -0.0000 -0.0000 0.0000 -0.0000 -0.0000 0.0000 -0.0000 -0.0000 0.0000 -0.0000 3.1218 3.9575 -0.9431 -12.2489 7.5199 -11.9210 -0.0000 -0.0000 -0.0000 -1.4950 -4.1135 2.8430 18.3996 -55.8641 -12.2703 0.0000 -0.0000 -0.0000
-0.1208 85.0901 74.2587 0.3855 4.6483 -0.1462 -0.0544 -6.4288 -0.2088 -0.0544 -6.4288 -0.2088 -0.0557 -6.6236 -0.2151 -0.0000 0.0000 -0.0000 -0.0000 0.0000 -0.0000 -0.0000 0.0000 -0.0000 -0.0000 0.0000 -0.0000 -0.0000 0.0000 -0.0000 -0.0000 0.0000 -0.0000 -0.0000 0.0000 -0.0000 -0.0000 0.0000 -0.0000 -0.0000 0.0000 -0.0000 -0.0000 0.0000 -0.0000 3.1229 1.7628 -1.0630 -12.1785 8.0471 -11.7644 -0.0000 -0.0000 -0.0000 -1.4783 -1.8657 2.7411 18.6523 -57.7855 -12.5034 0.0000 -0.0000 -0.0000
-0.1286 84.5668 74.5331 0.3836 4.6499 -0.1781 -0.0418 -6.4388 -0.1876 -0.0418 -6.4388 -0.1876 -0.0428 -6.6339 -0.1932 -0.0000 0.0000 -0.0000 -0.0000 0.0000 -0.0000 -0.0000 0.0000 -0.0000 -0.0000 0.0000 -0.0000 -0.0000 0.0000 -0.0000 -0.0000 0.0000 -0.0000 -0.0000 0.0000 -0.0000 -0.0000 0.0000 -0.0000 -0.0000 0.0000 -0.0000 -0.0000 0.0000 -0.0000 3.1256 -0.4622 -1.1960 -12.0857 8.5683 -11.5890 -0.0000 0.0000 0.0000 -1.4692 0.3562 2.6354 18.9235 -59.6220 -12.7494 0.0000 -0.0000 -0.0000
-0.1354 83.9548 74.7832 0.3820 4.6471 -0.2036 -0.0408 -6.4436 -0.1652 -0.0408 -6.4436 -0.1652 -0.0417 -6.6389 -0.1702 -0.0000 0.0000 -0.0000 -0.0000 0.0000 -0.0000 -0.0000 0.0000 -0.0000 -0.0000 0.0000 -0.0000 -0.0000 0.0000 -0.0000 -0.0000 0.0000 -0.0000 -0.0000 0.0000 -0.0000 -0.0000 0.0000 -0.0000 -0.0000 0.0000 -0.0000 -0.0000 0.0000 -0.0000 3.1345 -2.6890 -1.3472 -11.9661 9.0810 -11.3890 -0.0000 0.0000 -0.0000 -1.4629 2.5720 2.5110 19.2126 -61.3645 -13.0066 -0.0000 0.0000 -0.0000
-0.1414 83.2619 75.0119 0.3795 4.6373 -0.2283 -0.0864 -6.4413 -0.1543 -0.0864 -6.4413 -0.1543 -0.0887 -6.6365 -0.1589 -0.0000 0.0000 -0.0000 -0.0000 0.0000 -0.0000 -0.0000 0.0000 -0.0000 -0.0000 0.0000 -0.0000 -0.0000 0.0000 -0.0000 -0.0000 0.0000 -0.0000 -0.0000 0.0000 -0.0000 -0.0000 0.0000 -0.0000 -0.0000 0.0000 -0.0000 -0.0000 0.0000 -0.0000 3.1499 -4.9005 -1.4932 -11.8095 9.5821 -11.1569 0.0000 -0.0000 -0.0000 -1.4573 4.7773 2.3821 19.5186 -63.0134 -13.2763 0.0000 -0.0000 -0.0000
-0.1467 82.4969 75.2293 0.3753 4.6547 -0.3046 -0.0921 -6.4421 -0.1167 -0.0921 -6.4421 -0.1167 -0.0947 -6.6373 -0.1201 -0.0000 0.0000 -0.0000 -0.0000 0.0000 -0.0000 -0.0000 0.0000 -0.0000 -0.0000 0.0000 -0.0000 -0.0000 0.0000 -0.0000 -0.0000 0.0000 -0.0000 -0.0000 0.0000 -0.0000 -0.0000 0.0000 -0.0000 -0.0000 0.0000 -0.0000 -0.0000 0.0000 -0.0000 3.1710 -7.1143 -1.5662 -11.6029 10.0673 -10.8798 0.0000 -0.0000 -0.0000 -1.4561 6.9649 2.3148 19.8472 -64.5877 -13.5643 -0.0000 0.0000 -0.0000
-0.1516 81.6695 75.4446 0.3743 4.6779 -0.3882 -0.0913 -6.4406 -0.0813 -0.0913 -6.4406 -0.0813 -0.0939 -6.6357 -0.0836 -0.0000 0.0000 -0.0000 -0.0000 0.0000 -0.0000 -0.0000 0.0000 -0.0000 -0.0000 0.0000 -0.0000 -0.0000 0.0000 -0.0000 -0.0000 0.0000 -0.0000 -0.0000 0.0000 -0.0000 -0.0000 0.0000 -0.0000 -0.0000 0.0000 -0.0000 -0.0000 0.0000 -0.0000 3.1986 -9.3292 -1.6371 -11.3295 10.5356 -10.5379 -0.0000 0.0000 -0.0000 -1.4644 9.1335 2.2496 20.1951 -66.0681 -13.8669 0.0000 -0.0000 -0.0000
-0.1561 80.7891 75.6653 0.3724 4.7002 -0.4823 -0.0873 -6.4426 -0.0356 -0.0873 -6.4426 -0.0356 -0.0899 -6.6378 -0.0365 -0.0000 0.0000 -0.0000 -0.0000 0.0000 -0.0000 -0.0000 0.0000 -0.0000 -0.0000 0.0000 -0.0000 -0.0000 0.0000 -0.0000 -0.0000 0.0000 -0.0000 -0.0000 0.0000 -0.0000 -0.0000 0.0000 -0.0000 -0.0000 0.0000 -0.0000 -0.0000 0.0000 -0.0000 3.2331 -11.5492 -1.7180 -10.9557 10.9859 -10.0957 -0.0000 0.0000 -0.0000 -1.4727 11.3047 2.1962 20.5653 -67.4758 -14.1882 -0.0000 0.0000 -0.0000
-0.1604 79.8660 75.8977 0.3721 4.6970 -0.5820 -0.0824 -6.4412 0.0147 -0.0824 -6.4412 0.0147 -0.0849 -6.6364 0.0153 -0.0000 0.0000 -0.0000 -0.0000 0.0000 -0.0000 -0.0000 0.0000 -0.0000 -0.0000 0.0000 -0.0000 -0.0000 0.0000 -0.0000 -0.0000 0.0000 -0.0000 -0.0000 0.0000 -0.0000 -0.0000 0.0000 -0.0000 -0.0000 0.0000 -0.0000 -0.0000 0.0000 -0.0000 3.2715 -13.7399 -1.8098 -10.4261 11.4114 -4.9918 -0.0000 0.0000 -0.0000 -1.4787 13.4917 2.1525 20.9560 -68.8073 -14.5270 0.0000 -0.0000 -0.0000
-0.1646 79.0138 76.1472 0.3710 4.6705 -0.6386 -0.0788 -6.4298 0.0501 -0.0788 -6.4298 0.0501 -0.0813 -6.6246 0.0517 -0.0000 0.0000 -0.0000 -0.0000 0.0000 -0.0000 -0.0000 0.0000 -0.0000 -0.0000 0.0000 -0.0000 -0.0000 0.0000 -0.0000 -0.0000 0.0000 -0.0000 -0.0000 0.0000 -0.0000 -0.0000 0.0000 -0.0000 -0.0000 0.0000 -0.0000 -0.0000 0.0000 -0.0000 3.3109 -15.8687 -1.9164 -9.6513 11.7969 3.3759 0.0000 -0.0000 -0.0000 -1.4853 15.6824 2.0629 21.3642 -70.0608 -14.8804 0.0000 -0.0000 -0.0000
-0.1687 78.2467 76.4184 0.3694 4.6547 -0.6778 -0.0756 -6.4223 0.0613 -0.0756 -6.4223 0.0613 -0.0780 -6.6169 0.0633 -0.0000 0.0000 -0.0000 -0.0000 0.0000 -0.0000 -0.0000 0.0000 -0.0000 -0.0000 0.0000 -0.0000 -0.0000 0.0000 -0.0000 -0.0000 0.0000 -0.0000 -0.0000 0.0000 -0.0000 -0.0000 0.0000 -0.0000 -0.0000 0.0000 -0.0000 -0.0000 0.0000 -0.0000 3.3514 -18.0004 -2.0361 -8.4828 12.1251 10.5660 -0.0000 0.0000 -0.0000 -1.4921 17.8522 1.9568 21.7929 -71.2479 -15.2521 0.0000 -0.0000 -0.0000
-0.1727 77.5564 76.7151 0.3671 4.6401 -0.7101 -0.0733 -6.4234 0.0818 -0.0733 -6.4234 0.0818 -0.0757 -6.6181 0.0844 -0.0000 0.0000 -0.0000 -0.0000 0.0000 -0.0000 -0.0000 0.0000 -0.0000 -0.0000 0.0000 -0.0000 -0.0000 0.0000 -0.0000 -0.0000 0.0000 -0.0000 -0.0000 0.0000 -0.0000 -0.0000 0.0000 -0.0000 -0.0000 0.0000 -0.0000 -0.0000 0.0000 -0.0000 3.3973 -20.0123 -2.1686 -6.7622 12.3581 12.3450 -0.0000 0.0000 -0.0000 -1.5005 20.0063 1.8508 22.2422 -72.3676 -15.6428 -0.0000 0.0000 -0.0000
-0.1768 76.9351 77.0404 0.3671 4.6581 -0.7448 -0.0718 -6.4260 0.0945 -0.0718 -6.4260 0.0945 -0.0741 -6.6207 0.0975 -0.0000 0.0000 -0.0000 -0.0000 0.0000 -0.0000 -0.0000 0.0000 -0.0000 -0.0000 0.0000 -0.0000 -0.0000 0.0000 -0.0000 -0.0000 0.0000 -0.0000 -0.0000 0.0000 -0.0000 -0.0000 0.0000 -0.0000 -0.0000 0.0000 -0.0000 -0.0000 0.0000 -0.0000 3.4515 -20.2272 -2.3153 -0.4356 12.4457 14.6219 -0.0000 0.0000 -0.0000 -1.5167 22.1129 1.7454 -22.2851 -73.4257 -16.0559 -0.0000 0.0000 -0.0000
-0.1805 76.8227 77.3680 -1.4111 1.8540 -2.0592 0.9943 -2.5262 0.4810 0.9943 -2.5262 0.4810 1.0241 -2.6029 0.4949 -0.0000 0.0000 -0.0000 -0.0000 0.0000 -0.0000 -0.0000 0.0000 -0.0000 -0.0000 0.0000 -0.0000 -0.0000 0.0000 -0.0000 -0.0000 0.0000 -0.0000 -0.0000 0.0000 -0.0000 -0.0000 0.0000 -0.0000 -0.0000 0.0000 -0.0000 -0.0000 0.0000 -0.0000 2.7409 -15.4374 -1.1513 -8.3473 12.1390 10.7928 -0.0000 0.0000 -0.0000 -0.8524 15.4459 1.4938 14.3112 -46.4061 11.4261 -0.0000 0.0000 -0.0000
-0.1837 76.9007 77.6993 -2.3089 1.1164 -2.7603 1.5014 -1.5373 0.7477 1.5014 -1.5373 0.7477 1.5466 -1.5842 0.7697 0.0000 -0.0000 -0.0000 0.0000 -0.0000 -0.0000 0.0000 -0.0000 -0.0000 0.0000 -0.0000 -0.0000 0.0000 -0.0000 -0.0000 0.0000 -0.0000 -0.0000 0.0000 -0.0000 -0.0000 0.0000 -0.0000 -0.0000 0.0000 -0.0000 -0.0000 0.0000 -0.0000 -0.0000 2.6157 -15.9388 -0.9618 -7.3553 12.2781 11.8711 0.0000 -0.0000 0.0000 -0.6533 16.0584 1.3351 13.7642 -34.9203 12.3896 0.0000 -0.0000 -0.0000
-0.1861 76.9828 78.0412 -2.9481 0.9087 -3.2714 1.8582 -1.2858 0.9536 1.8582 -1.2858 0.9536 1.9141 -1.3253 0.9819 0.0000 -0.0000 -0.0000 0.0000 -0.0000 -0.0000 0.0000 -0.0000 -0.0000 0.0000 -0.0000 -0.0000 0.0000 -0.0000 -0.0000 0.0000 -0.0000 -0.0000 0.0000 -0.0000 -0.0000 0.0000 -0.0000 -0.0000 0.0000 -0.0000 -0.0000 0.0000 -0.0000 -0.0000 2.6330 -18.1033 -1.0579 -4.5599 12.4096 14.3865 -0.0000 0.0000 -0.0000 -0.5943 18.3326 1.2539 13.3844 -30.0994 12.8519 0.0000 -0.0000 0.0000
-0.1874 77.0560 78.4000 -3.4850 0.8002 -3.7547 2.1584 -1.2076 1.1432 2.1584 -1.2076 1.1432 2.2234 -1.2449 1.1771 -0.0000 0.0000 -0.0000 -0.0000 0.0000 -0.0000 -0.0000 0.0000 -0.0000 -0.0000 0.0000 -0.0000 -0.0000 0.0000 -0.0000 -0.0000 0.0000 -0.0000 -0.0000 0.0000 -0.0000 -0.0000 0.0000 -0.0000 -0.0000 0.0000 -0.0000 -0.0000 0.0000 -0.0000 2.6919 -20.0491 -1.1761 6.6285 12.3134 17.0828 0.0000 -0.0000 -0.0000 -0.5668 20.8701 1.2533 13.0047 -25.9123 13.1582 0.0000 -0.0000 -0.0000
-0.1873 77.1476 78.7810 -3.9558 0.7029 -4.1684 2.4204 -1.1546 1.2962 2.4204 -1.1546 1.2962 2.4934 -1.1905 1.3348 -0.0000 0.0000 -0.0000 -0.0000 0.0000 -0.0000 -0.0000 0.0000 -0.0000 -0.0000 0.0000 -0.0000 -0.0000 0.0000 -0.0000 -0.0000 0.0000 -0.0000 -0.0000 0.0000 -0.0000 -0.0000 0.0000 -0.0000 -0.0000 0.0000 -0.0000 -0.0000 0.0000 -0.0000 2.7614 -20.2687 -1.2951 8.3844 12.0475 18.9330 -0.0000 0.0000 -0.0000 -0.5487 23.2596 1.2859 12.6296 -20.9136 13.3415 0.0000 0.0000 -0.0000
-0.1853 77.2022 79.1874 -4.3636 0.6145 -4.5185 2.6486 -1.1062 1.4304 2.6486 -1.1062 1.4304 2.7284 -1.1408 1.4729 -0.0000 0.0000 0.0000 -0.0000 0.0000 0.0000 -0.0000 0.0000 0.0000 -0.0000 0.0000 0.0000 -0.0000 0.0000 0.0000 -0.0000 0.0000 0.0000 -0.0000 0.0000 0.0000 -0.0000 0.0000 0.0000 -0.0000 0.0000 0.0000 -0.0000 0.0000 0.0000 2.8328 -20.4646 -1.4228 9.0921 12.0842 19.6266 -0.0000 0.0000 -0.0000 -0.5320 25.3976 1.3245 12.3923 -19.5062 13.4686 0.0000 -0.0000 -0.0000
-0.1811 77.1763 79.6211 -4.7130 0.5869 -4.8253 2.8427 -1.0784 1.5519 2.8427 -1.0784 1.5519 2.9284 -1.1123 1.5981 -0.0000 0.0000 -0.0000 -0.0000 0.0000 -0.0000 -0.0000 0.0000 -0.0000 -0.0000 0.0000 -0.0000 -0.0000 0.0000 -0.0000 -0.0000 0.0000 -0.0000 -0.0000 0.0000 -0.0000 -0.0000 0.0000 -0.0000 -0.0000 0.0000 -0.0000 -0.0000 0.0000 -0.0000 2.9144 -20.6364 -1.5230 9.1580 12.5530 19.6131 -0.0000 0.0000 -0.0000 -0.5027 27.1808 1.3858 12.2886 -22.1069 13.6187 -0.0000 0.0000 -0.0000
-0.1744 77.1210 80.0828 -4.9922 0.5249 -5.0590 2.9970 -1.0412 1.6468 2.9970 -1.0412 1.6468 3.0874 -1.0741 1.6958 0.0000 -0.0000 -0.0000 0.0000 -0.0000 -0.0000 0.0000 -0.0000 -0.0000 0.0000 -0.0000 -0.0000 0.0000 -0.0000 -0.0000 0.0000 -0.0000 -0.0000 0.0000 -0.0000 -0.0000 0.0000 -0.0000 -0.0000 0.0000 -0.0000 -0.0000 0.0000 -0.0000 -0.0000 2.9833 -20.7717 -1.6202 7.4839 13.1838 17.9015 -0.0000 0.0000 -0.0000 -0.4833 28.6585 1.4308 12.2205 -25.0803 13.7588 0.0000 0.0000 -0.0000
-0.1648 77.1031 80.5717 -5.2011 0.4813 -5.2682 3.1132 -1.0099 1.7274 3.1132 -1.0099 1.7274 3.2071 -1.0420 1.7788 0.0000 -0.0000 -0.0000 0.0000 -0.0000 -0.0000 0.0000 -0.0000 -0.0000 0.0000 -0.0000 -0.0000 0.0000 -0.0000 -0.0000 0.0000 -0.0000 -0.0000 0.0000 -0.0000 -0.0000 0.0000 -0.0000 -0.0000 0.0000 -0.0000 -0.0000 0.0000 -0.0000 -0.0000 3.0392 -20.8734 -1.6606 -14.6651 12.9866 -13.2136 0.0000 -0.0000 -0.0000 -0.4653 29.7639 1.5049 12.1684 -27.4995 13.8727 -0.0000 0.0000 -0.0000
-0.1521 77.1773 81.0859 -5.3334 0.4480 -5.4207 3.1875 -0.9991 1.7786 3.1875 -0.9991 1.7786 3.2837 -1.0310 1.8316 -0.0000 0.0000 -0.0000 -0.0000 0.0000 -0.0000 -0.0000 0.0000 -0.0000 -0.0000 0.0000 -0.0000 -0.0000 0.0000 -0.0000 -0.0000 0.0000 -0.0000 -0.0000 0.0000 -0.0000 -0.0000 0.0000 -0.0000 -0.0000 0.0000 -0.0000 -0.0000 0.0000 -0.0000 3.0744 -20.9388 -1.6678 -15.5598 12.1574 -13.9965 -0.0000 0.0000 0.0000 -0.4579 30.4874 1.5685 12.1323 -29.1004 13.9510 0.0000 -0.0000 -0.0000
-0.1363 77.3789 81.6227 -5.3951 0.4178 -5.4625 3.2217 -0.9822 1.7872 3.2217 -0.9822 1.7872 3.3188 -1.0135 1.8405 -0.0000 0.0000 -0.0000 -0.0000 0.0000 -0.0000 -0.0000 0.0000 -0.0000 -0.0000 0.0000 -0.0000 -0.0000 0.0000 -0.0000 -0.0000 0.0000 -0.0000 -0.0000 0.0000 -0.0000 -0.0000 0.0000 -0.0000 -0.0000 0.0000 -0.0000 -0.0000 0.0000 -0.0000 3.0907 -20.9682 -1.7040 -15.6880 11.2649 -13.9353 0.0000 0.0000 -0.0000 -0.4587 30.8339 1.5684 12.1146 -29.8221 13.9889 0.0000 -0.0000 -0.0000
-0.1175 77.7254 82.1785 -5.3851 0.4086 -5.4756 3.2158 -0.9687 1.7838 3.2158 -0.9687 1.7838 3.3128 -0.9996 1.8370 -0.0000 0.0000 -0.0000 -0.0000 0.0000 -0.0000 -0.0000 0.0000 -0.0000 -0.0000 0.0000 -0.0000 -0.0000 0.0000 -0.0000 -0.0000 0.0000 -0.0000 -0.0000 0.0000 -0.0000 -0.0000 0.0000 -0.0000 -0.0000 0.0000 -0.0000 -0.0000 0.0000 -0.0000 3.0836 -20.9604 -1.6788 -15.7102 10.3411 -13.6972 -0.0000 -0.0000 -0.0000 -0.4550 30.7801 1.5935 12.1166 -29.6248 13.9832 0.0000 0.0000 -0.0000
-0.0957 78.2166 82.7488 -5.2967 0.4012 -5.3892 3.1658 -0.9593 1.7429 3.1658 -0.9593 1.7429 3.2613 -0.9899 1.7949 0.0000 -0.0000 -0.0000 0.0000 -0.0000 -0.0000 0.0000 -0.0000 -0.0000 0.0000 -0.0000 -0.0000 0.0000 -0.0000 -0.0000 0.0000 -0.0000 -0.0000 0.0000 -0.0000 -0.0000 0.0000 -0.0000 -0.0000 0.0000 -0.0000 -0.0000 0.0000 -0.0000 -0.0000 3.0486 -20.9157 -1.6608 -15.7232 9.4105 -13.3890 -0.0000 0.0000 0.0000 -0.4627 30.3339 1.5714 12.1393 -28.5221 13.9345 0.0000 -0.0000 -0.0000
-0.0713 78.8386 83.3289 -5.1350 0.3994 -5.2313 3.0746 -0.9549 1.6715 3.0746 -0.9549 1.6715 3.1674 -0.9853 1.7213 -0.0000 0.0000 0.0000 -0.0000 0.0000 0.0000 -0.0000 0.0000 0.0000 -0.0000 0.0000 0.0000 -0.0000 0.0000 0.0000 -0.0000 0.0000 0.0000 -0.0000 0.0000 0.0000 -0.0000 0.0000 0.0000 -0.0000 0.0000 0.0000 -0.0000 0.0000 0.0000 2.9960 -20.8336 -1.6270 -15.7508 8.4926 -13.0448 -0.0000 -0.0000 -0.0000 -0.4794 29.5032 1.5301 12.1789 -26.5197 13.8457 0.0000 -0.0000 0.0000
-0.0447 79.5659 83.9133 -4.9030 0.4091 -5.0406 2.9445 -0.9575 1.6020 2.9445 -0.9575 1.6020 3.0333 -0.9878 1.6498 0.0000 -0.0000 -0.0000 0.0000 -0.0000 -0.0000 0.0000 -0.0000 -0.0000 0.0000 -0.0000 -0.0000 0.0000 -0.0000 -0.0000 0.0000 -0.0000 -0.0000 0.0000 -0.0000 -0.0000 0.0000 -0.0000 -0.0000 0.0000 -0.0000 -0.0000 0.0000 -0.0000 -0.0000 2.9339 -20.7175 -1.5381 -15.8018 7.6064 -12.6861 0.0000 -0.0000 -0.0000 -0.4992 28.2931 1.5116 12.2311 -23.6359 13.7214 -0.0000 0.0000 -0.0000
-0.0164 80.3650 84.4964 -4.6041 0.4702 -4.7619 2.7775 -0.9915 1.4939 2.7775 -0.9915 1.4939 2.8613 -1.0227 1.5384 -0.0000 -0.0000 -0.0000 -0.0000 -0.0000 -0.0000 -0.0000 -0.0000 -0.0000 -0.0000 -0.0000 -0.0000 -0.0000 -0.0000 -0.0000 -0.0000 -0.0000 -0.0000 -0.0000 -0.0000 -0.0000 -0.0000 -0.0000 -0.0000 -0.0000 -0.0000 -0.0000 -0.0000 -0.0000 -0.0000 2.8716 -20.5723 -1.4566 -15.8777 6.7653 -12.3262 -0.0000 0.0000 0.0000 -0.5149 26.7200 1.4559 12.2871 -19.9199 13.5692 0.0000 -0.0000 -0.0000
0.0130 81.1988 85.0725 -4.2429 0.5444 -4.4122 2.5758 -1.0307 1.3661 2.5758 -1.0307 1.3661 2.6535 -1.0629 1.4068 -0.0000 0.0000 -0.0000 -0.0000 0.0000 -0.0000 -0.0000 0.0000 -0.0000 -0.0000 0.0000 -0.0000 -0.0000 0.0000 -0.0000 -0.0000 0.0000 -0.0000 -0.0000 0.0000 -0.0000 -0.0000 0.0000 -0.0000 -0.0000 0.0000 -0.0000 -0.0000 0.0000 -0.0000 2.8064 -20.3964 -1.3756 -15.9764 5.9785 -11.9758 0.0000 -0.0000 0.0000 -0.5245 24.7855 1.4188 12.3464 -15.3965 13.3902 0.0000 -0.0000 -0.0000
0.0429 82.0292 85.6353 -3.8162 0.6201 -4.0078 2.3366 -1.0569 1.2149 2.3366 -1.0569 1.2149 2.4071 -1.0897 1.2511 0.0000 -0.0000 -0.0000 0.0000 -0.0000 -0.0000 0.0000 -0.0000 -0.0000 0.0000 -0.0000 -0.0000 0.0000 -0.0000 -0.0000 0.0000 -0.0000 -0.0000 0.0000 -0.0000 -0.0000 0.0000 -0.0000 -0.0000 0.0000 -0.0000 -0.0000 0.0000 -0.0000 -0.0000 2.7324 -20.1886 -1.3263 -16.0917 5.2466 -11.6365 0.0000 -0.0000 -0.0000 -0.5419 22.5141 1.3669 12.4048 -10.1443 13.1905 0.0000 -0.0000 -0.0000
0.0726 82.8189 86.1788 -3.3307 0.7078 -3.5719 2.0669 -1.0866 1.0537 2.0669 -1.0866 1.0537 2.1292 -1.1201 1.0850 0.0000 -0.0000 -0.0000 0.0000 -0.0000 -0.0000 0.0000 -0.0000 -0.0000 0.0000 -0.0000 -0.0000 0.0000 -0.0000 -0.0000 0.0000 -0.0000 -0.0000 0.0000 -0.0000 -0.0000 0.0000 -0.0000 -0.0000 0.0000 -0.0000 -0.0000 0.0000 -0.0000 -0.0000 2.6589 -19.5719 -1.2306 -16.2256 0.7382 -11.3286 0.0000 -0.0000 -0.0000 -0.5577 19.9492 1.3343 12.4544 -4.2443 12.9782 0.0000 -0.0000 -0.0000
0.1015 83.5344 86.6971 -2.7879 0.7465 -3.1203 1.7659 -1.0958 0.8818 1.7659 -1.0958 0.8818 1.8192 -1.1294 0.9080 -0.0000 0.0000 -0.0000 -0.0000 0.0000 -0.0000 -0.0000 0.0000 -0.0000 -0.0000 0.0000 -0.0000 -0.0000 0.0000 -0.0000 -0.0000 0.0000 -0.0000 -0.0000 0.0000 -0.0000 -0.0000 0.0000 -0.0000 -0.0000 0.0000 -0.0000 -0.0000 0.0000 -0.0000 2.5799 -16.9218 -1.0817 -16.3694 -5.4872 -11.0616 -0.0000 0.0000 -0.0000 -0.5786 17.1892 1.3428 12.4913 2.2245 12.7545 -0.0000 0.0000 -0.0000
0.1289 84.1463 87.1843 -2.2074 0.7628 -2.6197 1.4430 -1.1132 0.6915 1.4430 -1.1132 0.6915 1.4865 -1.1472 0.7120 0.0000 -0.0000 -0.0000 0.0000 -0.0000 -0.0000 0.0000 -0.0000 -0.0000 0.0000 -0.0000 -0.0000 0.0000 -0.0000 -0.0000 0.0000 -0.0000 -0.0000 0.0000 -0.0000 -0.0000 0.0000 -0.0000 -0.0000 0.0000 -0.0000 -0.0000 0.0000 -0.0000 -0.0000 2.5115 -14.0300 -0.9318 -16.5181 -11.2241 -10.8427 -0.0000 0.0000 -0.0000 -0.5942 14.2338 1.3358 12.5123 5.4157 12.5242 -0.0000 0.0000 0.0000
0.1543 84.6305 87.6348 -1.5937 0.7810 -2.1105 1.1012 -1.1287 0.5004 1.1012 -1.1287 0.5004 1.1344 -1.1630 0.5153 -0.0000 0.0000 -0.0000 -0.0000 0.0000 -0.0000 -0.0000 0.0000 -0.0000 -0.0000 0.0000 -0.0000 -0.0000 0.0000 -0.0000 -0.0000 0.0000 -0.0000 -0.0000 0.0000 -0.0000 -0.0000 0.0000 -0.0000 -0.0000 0.0000 -0.0000 -0.0000 0.0000 -0.0000 2.4626 -10.9677 -0.7496 -16.6628 -16.5051 -10.6804 0.0000 -0.0000 -0.0000 -0.5987 11.1126 1.3461 12.5115 6.1444 12.2859 -0.0000 0.0000 0.0000
0.1773 84.9689 88.0436 -0.9569 0.8261 -1.5430 0.7449 -1.1411 0.2859 0.7449 -1.1411 0.2859 0.7674 -1.1758 0.2944 0.0000 -0.0000 -0.0000 0.0000 -0.0000 -0.0000 0.0000 -0.0000 -0.0000 0.0000 -0.0000 -0.0000 0.0000 -0.0000 -0.0000 0.0000 -0.0000 -0.0000 0.0000 -0.0000 -0.0000 0.0000 -0.0000 -0.0000 0.0000 -0.0000 -0.0000 0.0000 -0.0000 -0.0000 2.4294 -7.7898 -0.6094 -16.7904 -21.3961 -10.5826 0.0000 -0.0000 -0.0000 -0.6004 7.8296 1.3280 12.4873 6.8955 12.0381 -0.0000 0.0000 -0.0000
0.1981 85.1497 88.4155 -0.2994 0.8732 -0.9798 0.3778 -1.1632 0.0734 0.3778 -1.1632 0.0734 0.3893 -1.1985 0.0755 -0.0000 0.0000 -0.0000 -0.0000 0.0000 -0.0000 -0.0000 0.0000 -0.0000 -0.0000 0.0000 -0.0000 -0.0000 0.0000 -0.0000 -0.0000 0.0000 -0.0000 -0.0000 0.0000 -0.0000 -0.0000 0.0000 -0.0000 -0.0000 0.0000 -0.0000 -0.0000 0.0000 -0.0000 2.4009 -4.5207 -0.4401 -16.8868 -25.9262 -10.5604 0.0000 -0.0000 -0.0000 -0.6038 4.4445 1.3483 12.4332 7.6585 11.7737 0.0000 -0.0000 0.0000